<?xml version="1.0" ?>
<gpx xmlns="http://www.topografix.com/GPX/1/1" xmlns:uuidx="http://www.garmin.com/xmlschemas/IdentifierExtension/v1" xmlns:xsi="http://www.w3.org/2001/XMLSchema" creator="Burnt Toast GPX Creator" version="1.1" xsi:schemaLocation="http://www.topografix.com/GPX/1/1 https://www.topografix.com/GPX/1/1/gpx.xsd http://www.garmin.com/xmlschemas/IdentifierExtension/v1 http://www.garmin.com/xmlschemas/IdentifierExtension.xsd">
  <metadata>
    <author>
      <name>Burnt Toast</name>
      <email id="doug" domain="svburnttoast.com"/>
    </author>
    <copyright author="Douglas Carroll">
      <year>2026</year>
    </copyright>
    <link href="https://svburnttoast.com/">
      <text>SV Burnt Toast</text>
    </link>
    <time>2026-02-14T12:48:35.757Z</time>
    <bounds minlat="24.090000" minlon="-76.411667" maxlat="24.090000" maxlon="-76.411667"/>
  </metadata>
  <wpt lat="24.090000" lon="-76.411667">
    <name>Black Point</name>
    <desc/>
    <sym>WayPoint</sym>
    <extensions>
      <uuidx:uuid>d54a7acc-61ab-4be1-9f93-c7a8273417a7</uuidx:uuid>
    </extensions>
  </wpt>
</gpx>