<?xml version="1.0" ?>
<gpx xmlns="http://www.topografix.com/GPX/1/1" xmlns:uuidx="http://www.garmin.com/xmlschemas/IdentifierExtension/v1" xmlns:xsi="http://www.w3.org/2001/XMLSchema" creator="Burnt Toast GPX Creator" version="1.1" xsi:schemaLocation="http://www.topografix.com/GPX/1/1 https://www.topografix.com/GPX/1/1/gpx.xsd http://www.garmin.com/xmlschemas/IdentifierExtension/v1 http://www.garmin.com/xmlschemas/IdentifierExtension.xsd">
  <metadata>
    <author>
      <name>Burnt Toast</name>
      <email id="doug" domain="svburnttoast.com"/>
    </author>
    <copyright author="Douglas Carroll">
      <year>2026</year>
    </copyright>
    <link href="https://svburnttoast.com/">
      <text>SV Burnt Toast</text>
    </link>
    <time>2026-02-16T20:59:23.714Z</time>
    <bounds minlat="23.901667" minlon="-76.253333" maxlat="23.901667" maxlon="-76.253333"/>
  </metadata>
  <wpt lat="23.901667" lon="-76.253333">
    <name>Cave Cay Cut</name>
    <desc/>
    <sym>WayPoint</sym>
    <extensions>
      <uuidx:uuid>98426724-5ea3-45d9-8e7b-6eefff212925</uuidx:uuid>
    </extensions>
  </wpt>
</gpx>