<?xml version="1.0" ?>
<gpx xmlns="http://www.topografix.com/GPX/1/1" xmlns:uuidx="http://www.garmin.com/xmlschemas/IdentifierExtension/v1" xmlns:xsi="http://www.w3.org/2001/XMLSchema" creator="Burnt Toast GPX Creator" version="1.1" xsi:schemaLocation="http://www.topografix.com/GPX/1/1 https://www.topografix.com/GPX/1/1/gpx.xsd http://www.garmin.com/xmlschemas/IdentifierExtension/v1 http://www.garmin.com/xmlschemas/IdentifierExtension.xsd">
  <metadata>
    <author>
      <name>Burnt Toast</name>
      <email id="doug" domain="svburnttoast.com"/>
    </author>
    <copyright author="Douglas Carroll">
      <year>2026</year>
    </copyright>
    <link href="https://svburnttoast.com/">
      <text>SV Burnt Toast</text>
    </link>
    <time>2026-02-09T23:07:00.148Z</time>
    <bounds minlat="24.423333" minlon="-76.783333" maxlat="24.423333" maxlon="-76.783333"/>
  </metadata>
  <wpt lat="24.423333" lon="-76.783333">
    <name>Cistern Bore</name>
    <desc/>
    <sym>WayPoint</sym>
    <extensions>
      <uuidx:uuid>cc04b6c0-6a4d-4dc0-8f75-4fdef5e1473b</uuidx:uuid>
    </extensions>
  </wpt>
</gpx>