<?xml version="1.0" ?>
<gpx xmlns="http://www.topografix.com/GPX/1/1" xmlns:uuidx="http://www.garmin.com/xmlschemas/IdentifierExtension/v1" xmlns:xsi="http://www.w3.org/2001/XMLSchema" creator="Burnt Toast GPX Creator" version="1.1" xsi:schemaLocation="http://www.topografix.com/GPX/1/1 https://www.topografix.com/GPX/1/1/gpx.xsd http://www.garmin.com/xmlschemas/IdentifierExtension/v1 http://www.garmin.com/xmlschemas/IdentifierExtension.xsd">
  <metadata>
    <author>
      <name>Burnt Toast</name>
      <email id="doug" domain="svburnttoast.com"/>
    </author>
    <copyright author="Douglas Carroll">
      <year>2026</year>
    </copyright>
    <link href="https://svburnttoast.com/">
      <text>SV Burnt Toast</text>
    </link>
    <time>2026-02-15T12:25:44.611Z</time>
    <bounds minlat="23.337500" minlon="-75.525000" maxlat="23.337500" maxlon="-75.525000"/>
  </metadata>
  <wpt lat="23.337500" lon="-75.525000">
    <name>Comer West</name>
    <desc/>
    <sym>WayPoint</sym>
    <extensions>
      <uuidx:uuid>2d2a9bdf-6d86-422d-9edd-08b74934e4f3</uuidx:uuid>
    </extensions>
  </wpt>
</gpx>