<?xml version="1.0" ?>
<gpx xmlns="http://www.topografix.com/GPX/1/1" xmlns:uuidx="http://www.garmin.com/xmlschemas/IdentifierExtension/v1" xmlns:xsi="http://www.w3.org/2001/XMLSchema" creator="Burnt Toast GPX Creator" version="1.1" xsi:schemaLocation="http://www.topografix.com/GPX/1/1 https://www.topografix.com/GPX/1/1/gpx.xsd http://www.garmin.com/xmlschemas/IdentifierExtension/v1 http://www.garmin.com/xmlschemas/IdentifierExtension.xsd">
  <metadata>
    <author>
      <name>Burnt Toast</name>
      <email id="doug" domain="svburnttoast.com"/>
    </author>
    <copyright author="Douglas Carroll">
      <year>2026</year>
    </copyright>
    <link href="https://svburnttoast.com/">
      <text>SV Burnt Toast</text>
    </link>
    <time>2026-02-19T16:40:36.276Z</time>
    <bounds minlat="23.844333" minlon="-76.235000" maxlat="23.844333" maxlon="-76.235000"/>
  </metadata>
  <wpt lat="23.844333" lon="-76.235000">
    <name>Darby Island</name>
    <desc/>
    <sym>WayPoint</sym>
    <extensions>
      <uuidx:uuid>6ee62063-9f13-4138-832c-ca7131fa2988</uuidx:uuid>
    </extensions>
  </wpt>
</gpx>