<?xml version="1.0" ?>
<gpx xmlns="http://www.topografix.com/GPX/1/1" xmlns:uuidx="http://www.garmin.com/xmlschemas/IdentifierExtension/v1" xmlns:xsi="http://www.w3.org/2001/XMLSchema" creator="Burnt Toast GPX Creator" version="1.1" xsi:schemaLocation="http://www.topografix.com/GPX/1/1 https://www.topografix.com/GPX/1/1/gpx.xsd http://www.garmin.com/xmlschemas/IdentifierExtension/v1 http://www.garmin.com/xmlschemas/IdentifierExtension.xsd">
  <metadata>
    <author>
      <name>Burnt Toast</name>
      <email id="doug" domain="svburnttoast.com"/>
    </author>
    <copyright author="Douglas Carroll">
      <year>2026</year>
    </copyright>
    <link href="https://svburnttoast.com/">
      <text>SV Burnt Toast</text>
    </link>
    <time>2026-02-15T12:21:42.557Z</time>
    <bounds minlat="23.470000" minlon="-76.083333" maxlat="23.470000" maxlon="-76.083333"/>
  </metadata>
  <wpt lat="23.470000" lon="-76.083333">
    <name>Duck Cays</name>
    <desc/>
    <sym>WayPoint</sym>
    <extensions>
      <uuidx:uuid>01aadc68-18fe-48a2-8826-452e0236a00b</uuidx:uuid>
    </extensions>
  </wpt>
</gpx>