<?xml version="1.0" ?>
<gpx xmlns="http://www.topografix.com/GPX/1/1" xmlns:uuidx="http://www.garmin.com/xmlschemas/IdentifierExtension/v1" xmlns:xsi="http://www.w3.org/2001/XMLSchema" creator="Burnt Toast GPX Creator" version="1.1" xsi:schemaLocation="http://www.topografix.com/GPX/1/1 https://www.topografix.com/GPX/1/1/gpx.xsd http://www.garmin.com/xmlschemas/IdentifierExtension/v1 http://www.garmin.com/xmlschemas/IdentifierExtension.xsd">
  <metadata>
    <author>
      <name>Burnt Toast</name>
      <email id="doug" domain="svburnttoast.com"/>
    </author>
    <copyright author="Douglas Carroll">
      <year>2026</year>
    </copyright>
    <link href="https://svburnttoast.com/">
      <text>SV Burnt Toast</text>
    </link>
    <time>2026-02-15T12:19:11.677Z</time>
    <bounds minlat="23.658333" minlon="-76.210000" maxlat="23.658333" maxlon="-76.210000"/>
  </metadata>
  <wpt lat="23.658333" lon="-76.210000">
    <name>East Barracouta Rocks</name>
    <desc/>
    <sym>WayPoint</sym>
    <extensions>
      <uuidx:uuid>31a15111-82cf-42d3-ba00-6fd7e74baee6</uuidx:uuid>
    </extensions>
  </wpt>
</gpx>