<?xml version="1.0" ?>
<gpx xmlns="http://www.topografix.com/GPX/1/1" xmlns:uuidx="http://www.garmin.com/xmlschemas/IdentifierExtension/v1" xmlns:xsi="http://www.w3.org/2001/XMLSchema" creator="Burnt Toast GPX Creator" version="1.1" xsi:schemaLocation="http://www.topografix.com/GPX/1/1 https://www.topografix.com/GPX/1/1/gpx.xsd http://www.garmin.com/xmlschemas/IdentifierExtension/v1 http://www.garmin.com/xmlschemas/IdentifierExtension.xsd">
  <metadata>
    <author>
      <name>Burnt Toast</name>
      <email id="doug" domain="svburnttoast.com"/>
    </author>
    <copyright author="Douglas Carroll">
      <year>2026</year>
    </copyright>
    <link href="https://svburnttoast.com/">
      <text>SV Burnt Toast</text>
    </link>
    <time>2026-02-16T21:00:17.272Z</time>
    <bounds minlat="23.875833" minlon="-76.249000" maxlat="23.875833" maxlon="-76.249000"/>
  </metadata>
  <wpt lat="23.875833" lon="-76.249000">
    <name>Guana Bar</name>
    <desc/>
    <sym>WayPoint</sym>
    <extensions>
      <uuidx:uuid>bd0b1646-102b-4031-80fe-1fe270e03e5c</uuidx:uuid>
    </extensions>
  </wpt>
</gpx>