<?xml version="1.0" ?>
<gpx xmlns="http://www.topografix.com/GPX/1/1" xmlns:uuidx="http://www.garmin.com/xmlschemas/IdentifierExtension/v1" xmlns:xsi="http://www.w3.org/2001/XMLSchema" creator="Burnt Toast GPX Creator" version="1.1" xsi:schemaLocation="http://www.topografix.com/GPX/1/1 https://www.topografix.com/GPX/1/1/gpx.xsd http://www.garmin.com/xmlschemas/IdentifierExtension/v1 http://www.garmin.com/xmlschemas/IdentifierExtension.xsd">
  <metadata>
    <author>
      <name>Burnt Toast</name>
      <email id="doug" domain="svburnttoast.com"/>
    </author>
    <copyright author="Douglas Carroll">
      <year>2026</year>
    </copyright>
    <link href="https://svburnttoast.com/">
      <text>SV Burnt Toast</text>
    </link>
    <time>2026-02-01T13:21:18.696Z</time>
    <bounds minlat="24.706167" minlon="-76.866667" maxlat="24.706167" maxlon="-76.866667"/>
  </metadata>
  <wpt lat="24.706167" lon="-76.866667">
    <name>Highborne Cay</name>
    <desc/>
    <sym>WayPoint</sym>
    <extensions>
      <uuidx:uuid>72bf25fa-dd27-4f52-b76d-26f1fb632825</uuidx:uuid>
    </extensions>
  </wpt>
</gpx>