<?xml version="1.0" ?>
<gpx xmlns="http://www.topografix.com/GPX/1/1" xmlns:uuidx="http://www.garmin.com/xmlschemas/IdentifierExtension/v1" xmlns:xsi="http://www.w3.org/2001/XMLSchema" creator="Burnt Toast GPX Creator" version="1.1" xsi:schemaLocation="http://www.topografix.com/GPX/1/1 https://www.topografix.com/GPX/1/1/gpx.xsd http://www.garmin.com/xmlschemas/IdentifierExtension/v1 http://www.garmin.com/xmlschemas/IdentifierExtension.xsd">
  <metadata>
    <author>
      <name>Burnt Toast</name>
      <email id="doug" domain="svburnttoast.com"/>
    </author>
    <copyright author="Douglas Carroll">
      <year>2026</year>
    </copyright>
    <link href="https://svburnttoast.com/">
      <text>SV Burnt Toast</text>
    </link>
    <time>2026-02-15T12:19:53.311Z</time>
    <bounds minlat="23.466667" minlon="-75.960000" maxlat="23.466667" maxlon="-75.960000"/>
  </metadata>
  <wpt lat="23.466667" lon="-75.960000">
    <name>Jewfish Cut North</name>
    <desc/>
    <sym>WayPoint</sym>
    <extensions>
      <uuidx:uuid>661e1eb3-e72b-4fe6-8498-41b0d75d3baf</uuidx:uuid>
    </extensions>
  </wpt>
</gpx>