<?xml version="1.0" ?>
<gpx xmlns="http://www.topografix.com/GPX/1/1" xmlns:uuidx="http://www.garmin.com/xmlschemas/IdentifierExtension/v1" xmlns:xsi="http://www.w3.org/2001/XMLSchema" creator="Burnt Toast GPX Creator" version="1.1" xsi:schemaLocation="http://www.topografix.com/GPX/1/1 https://www.topografix.com/GPX/1/1/gpx.xsd http://www.garmin.com/xmlschemas/IdentifierExtension/v1 http://www.garmin.com/xmlschemas/IdentifierExtension.xsd">
  <metadata>
    <author>
      <name>Burnt Toast</name>
      <email id="doug" domain="svburnttoast.com"/>
    </author>
    <copyright author="Douglas Carroll">
      <year>2026</year>
    </copyright>
    <link href="https://svburnttoast.com/">
      <text>SV Burnt Toast</text>
    </link>
    <time>2026-02-15T12:21:08.051Z</time>
    <bounds minlat="23.415000" minlon="-75.935000" maxlat="23.415000" maxlon="-75.935000"/>
  </metadata>
  <wpt lat="23.415000" lon="-75.935000">
    <name>Jewfish Cut South</name>
    <desc/>
    <sym>WayPoint</sym>
    <extensions>
      <uuidx:uuid>a9bd9439-9e94-428f-94f7-d19c2494f77f</uuidx:uuid>
    </extensions>
  </wpt>
</gpx>