<?xml version="1.0" ?>
<gpx xmlns="http://www.topografix.com/GPX/1/1" xmlns:uuidx="http://www.garmin.com/xmlschemas/IdentifierExtension/v1" xmlns:xsi="http://www.w3.org/2001/XMLSchema" creator="Burnt Toast GPX Creator" version="1.1" xsi:schemaLocation="http://www.topografix.com/GPX/1/1 https://www.topografix.com/GPX/1/1/gpx.xsd http://www.garmin.com/xmlschemas/IdentifierExtension/v1 http://www.garmin.com/xmlschemas/IdentifierExtension.xsd">
  <metadata>
    <author>
      <name>Burnt Toast</name>
      <email id="doug" domain="svburnttoast.com"/>
    </author>
    <copyright author="Douglas Carroll">
      <year>2026</year>
    </copyright>
    <link href="https://svburnttoast.com/">
      <text>SV Burnt Toast</text>
    </link>
    <time>2026-02-04T20:21:03.522Z</time>
    <bounds minlat="24.455000" minlon="-76.735000" maxlat="24.455000" maxlon="-76.735000"/>
  </metadata>
  <wpt lat="24.455000" lon="-76.735000">
    <name>Little Cistern Cut</name>
    <desc/>
    <sym>WayPoint</sym>
    <extensions>
      <uuidx:uuid>3e443ab3-b1b3-4ad5-84a4-c218715fa75a</uuidx:uuid>
    </extensions>
  </wpt>
</gpx>