<?xml version="1.0" ?>
<gpx xmlns="http://www.topografix.com/GPX/1/1" xmlns:uuidx="http://www.garmin.com/xmlschemas/IdentifierExtension/v1" xmlns:xsi="http://www.w3.org/2001/XMLSchema" creator="Burnt Toast GPX Creator" version="1.1" xsi:schemaLocation="http://www.topografix.com/GPX/1/1 https://www.topografix.com/GPX/1/1/gpx.xsd http://www.garmin.com/xmlschemas/IdentifierExtension/v1 http://www.garmin.com/xmlschemas/IdentifierExtension.xsd">
  <metadata>
    <author>
      <name>Burnt Toast</name>
      <email id="doug" domain="svburnttoast.com"/>
    </author>
    <copyright author="Douglas Carroll">
      <year>2026</year>
    </copyright>
    <link href="https://svburnttoast.com/">
      <text>SV Burnt Toast</text>
    </link>
    <time>2026-02-16T20:51:42.648Z</time>
    <bounds minlat="23.953333" minlon="-76.350000" maxlat="23.953333" maxlon="-76.350000"/>
  </metadata>
  <wpt lat="23.953333" lon="-76.350000">
    <name>Little Farmers</name>
    <desc/>
    <sym>WayPoint</sym>
    <extensions>
      <uuidx:uuid>34f58d06-cd4b-4cbb-a941-52575546c637</uuidx:uuid>
    </extensions>
  </wpt>
</gpx>