<?xml version="1.0" ?>
<gpx xmlns="http://www.topografix.com/GPX/1/1" xmlns:uuidx="http://www.garmin.com/xmlschemas/IdentifierExtension/v1" xmlns:xsi="http://www.w3.org/2001/XMLSchema" creator="Burnt Toast GPX Creator" version="1.1" xsi:schemaLocation="http://www.topografix.com/GPX/1/1 https://www.topografix.com/GPX/1/1/gpx.xsd http://www.garmin.com/xmlschemas/IdentifierExtension/v1 http://www.garmin.com/xmlschemas/IdentifierExtension.xsd">
  <metadata>
    <author>
      <name>Burnt Toast</name>
      <email id="doug" domain="svburnttoast.com"/>
    </author>
    <copyright author="Douglas Carroll">
      <year>2026</year>
    </copyright>
    <link href="https://svburnttoast.com/">
      <text>SV Burnt Toast</text>
    </link>
    <time>2026-02-09T23:09:20.912Z</time>
    <bounds minlat="24.355000" minlon="-76.701667" maxlat="24.355000" maxlon="-76.701667"/>
  </metadata>
  <wpt lat="24.355000" lon="-76.701667">
    <name>Long Rock Bore</name>
    <desc/>
    <sym>WayPoint</sym>
    <extensions>
      <uuidx:uuid>2fe424e8-6ac0-487f-84b0-c6e156a907f6</uuidx:uuid>
    </extensions>
  </wpt>
</gpx>