<?xml version="1.0" ?>
<gpx xmlns="http://www.topografix.com/GPX/1/1" xmlns:uuidx="http://www.garmin.com/xmlschemas/IdentifierExtension/v1" xmlns:xsi="http://www.w3.org/2001/XMLSchema" creator="Burnt Toast GPX Creator" version="1.1" xsi:schemaLocation="http://www.topografix.com/GPX/1/1 https://www.topografix.com/GPX/1/1/gpx.xsd http://www.garmin.com/xmlschemas/IdentifierExtension/v1 http://www.garmin.com/xmlschemas/IdentifierExtension.xsd">
  <metadata>
    <author>
      <name>Burnt Toast</name>
      <email id="doug" domain="svburnttoast.com"/>
    </author>
    <copyright author="Douglas Carroll">
      <year>2026</year>
    </copyright>
    <link href="https://svburnttoast.com/">
      <text>SV Burnt Toast</text>
    </link>
    <time>2026-02-23T11:11:33.556Z</time>
    <bounds minlat="23.486667" minlon="-75.671667" maxlat="23.486667" maxlon="-75.671667"/>
  </metadata>
  <wpt lat="23.486667" lon="-75.671667">
    <name>Middle Rocks</name>
    <desc/>
    <sym>WayPoint</sym>
    <extensions>
      <uuidx:uuid>64fd3088-6c48-4567-b101-a3f69628debb</uuidx:uuid>
    </extensions>
  </wpt>
</gpx>