<?xml version="1.0" ?>
<gpx xmlns="http://www.topografix.com/GPX/1/1" xmlns:uuidx="http://www.garmin.com/xmlschemas/IdentifierExtension/v1" xmlns:xsi="http://www.w3.org/2001/XMLSchema" creator="Burnt Toast GPX Creator" version="1.1" xsi:schemaLocation="http://www.topografix.com/GPX/1/1 https://www.topografix.com/GPX/1/1/gpx.xsd http://www.garmin.com/xmlschemas/IdentifierExtension/v1 http://www.garmin.com/xmlschemas/IdentifierExtension.xsd">
  <metadata>
    <author>
      <name>Burnt Toast</name>
      <email id="doug" domain="svburnttoast.com"/>
    </author>
    <copyright author="Douglas Carroll">
      <year>2026</year>
    </copyright>
    <link href="https://svburnttoast.com/">
      <text>SV Burnt Toast</text>
    </link>
    <time>2026-02-20T17:11:36.128Z</time>
    <bounds minlat="23.532667" minlon="-75.775667" maxlat="23.532667" maxlon="-75.775667"/>
  </metadata>
  <wpt lat="23.532667" lon="-75.775667">
    <name>Monument</name>
    <desc/>
    <sym>WayPoint</sym>
    <extensions>
      <uuidx:uuid>9059c283-74e3-43f8-8898-f6457e90e1c5</uuidx:uuid>
    </extensions>
  </wpt>
</gpx>