<?xml version="1.0" encoding="UTF-8" ?><gpx xmlns="http://www.topografix.com/GPX/1/1" version="1.1" creator="Navionics Boating App"><metadata><link href="http://www.navionics.com" /></metadata><rte><name>George Town to Water Cay</name><time>1771865515</time><rtept lat="23.514377" lon="-75.749914"><name>WP1abb8a23-002</name></rtept><rtept lat="23.513623" lon="-75.749815"><name>WP1abb8a23-006</name></rtept><rtept lat="23.507286" lon="-75.745449"><name>WP1abb8a23-005</name></rtept><rtept lat="23.507236" lon="-75.745414"><name>WP1abb8a23-004</name></rtept><rtept lat="23.506640" lon="-75.744910"><name>WP1abb8a23-099</name></rtept><rtept lat="23.506093" lon="-75.743303"><name>WP1abb8a23-046</name></rtept><rtept lat="23.502647" lon="-75.736018"><name>WP1abb8a23-045</name></rtept><rtept lat="23.501918" lon="-75.734464"><name>WP1abb8a23-044</name></rtept><rtept lat="23.500327" lon="-75.731140"><name>WP1abb8a23-043</name></rtept><rtept lat="23.498422" lon="-75.727152"><name>WP1abb8a23-042</name></rtept><rtept lat="23.493401" lon="-75.716354"><name>WP1abb8a23-041</name></rtept><rtept lat="23.492423" lon="-75.713992"><name>WP1abb8a23-040</name></rtept><rtept lat="23.491910" lon="-75.712626"><name>WP1abb8a23-039</name></rtept><rtept lat="23.491363" lon="-75.709779"><name>WP1abb8a23-038</name></rtept><rtept lat="23.491098" lon="-75.708054"><name>WP1abb8a23-037</name></rtept><rtept lat="23.490899" lon="-75.706599"><name>WP1abb8a23-036</name></rtept><rtept lat="23.490717" lon="-75.704686"><name>WP1abb8a23-035</name></rtept><rtept lat="23.490137" lon="-75.698559"><name>WP1abb8a23-034</name></rtept><rtept lat="23.489258" lon="-75.690223"><name>WP1abb8a23-033</name></rtept><rtept lat="23.488712" lon="-75.685858"><name>WP1abb8a23-032</name></rtept><rtept lat="23.487883" lon="-75.681070"><name>WP1abb8a23-031</name></rtept><rtept lat="23.487552" lon="-75.676659"><name>WP1abb8a23-030</name></rtept><rtept lat="23.487585" lon="-75.674881"><name>WP1abb8a23-029</name></rtept><rtept lat="23.487833" lon="-75.673713"><name>WP1abb8a23-028</name></rtept><rtept lat="23.488032" lon="-75.673264"><name>WP1abb8a23-027</name></rtept><rtept lat="23.488446" lon="-75.672617"><name>WP1abb8a23-026</name></rtept><rtept lat="23.488927" lon="-75.671961"><name>WP1abb8a23-025</name></rtept><rtept lat="23.490816" lon="-75.669904"><name>WP1abb8a23-024</name></rtept><rtept lat="23.492274" lon="-75.668233"><name>WP1abb8a23-023</name></rtept><rtept lat="23.493500" lon="-75.665359"><name>WP1abb8a23-022</name></rtept><rtept lat="23.493583" lon="-75.664101"><name>WP1abb8a23-021</name></rtept><rtept lat="23.493368" lon="-75.662323"><name>WP1abb8a23-020</name></rtept><rtept lat="23.492854" lon="-75.660302"><name>WP1abb8a23-019</name></rtept><rtept lat="23.490402" lon="-75.653169"><name>WP1abb8a23-018</name></rtept><rtept lat="23.486905" lon="-75.642803"><name>WP1abb8a23-017</name></rtept><rtept lat="23.481271" lon="-75.624837"><name>WP1abb8a23-016</name></rtept><rtept lat="23.475918" lon="-75.611121"><name>WP1abb8a23-015</name></rtept><rtept lat="23.470673" lon="-75.599973"><name>WP1abb8a23-014</name></rtept><rtept lat="23.468369" lon="-75.595625"><name>WP1abb8a23-013</name></rtept><rtept lat="23.461607" lon="-75.583373"><name>WP1abb8a23-012</name></rtept><rtept lat="23.453618" lon="-75.567177"><name>WP1abb8a23-011</name></rtept><rtept lat="23.447079" lon="-75.554134"><name>WP1abb8a23-010</name></rtept><rtept lat="23.440333" lon="-75.539743"><name>WP1abb8a23-009</name></rtept><rtept lat="23.434630" lon="-75.527329"><name>WP1abb8a23-008</name></rtept><rtept lat="23.433901" lon="-75.525227"><name>WP1abb8a23-007</name></rtept><rtept lat="23.428579" lon="-75.516379"><name>WP1abb8a23-106</name></rtept><rtept lat="23.411842" lon="-75.513424"><name>WP1abb8a23-056</name></rtept><rtept lat="23.411146" lon="-75.513136"><name>WP1abb8a23-055</name></rtept><rtept lat="23.410018" lon="-75.512687"><name>WP1abb8a23-054</name></rtept><rtept lat="23.408476" lon="-75.512256"><name>WP1abb8a23-053</name></rtept><rtept lat="23.407316" lon="-75.512022"><name>WP1abb8a23-052</name></rtept><rtept lat="23.406918" lon="-75.511951"><name>WP1abb8a23-051</name></rtept><rtept lat="23.405740" lon="-75.511951"><name>WP1abb8a23-050</name></rtept><rtept lat="23.405293" lon="-75.511996"><name>WP1abb8a23-049</name></rtept><rtept lat="23.405060" lon="-75.512022"><name>WP1abb8a23-048</name></rtept><rtept lat="23.404198" lon="-75.512328"><name>WP1abb8a23-105</name></rtept><rtept lat="23.402839" lon="-75.512184"><name>WP1abb8a23-098</name></rtept><rtept lat="23.402673" lon="-75.512166"><name>WP1abb8a23-097</name></rtept><rtept lat="23.402208" lon="-75.512166"><name>WP1abb8a23-096</name></rtept><rtept lat="23.401810" lon="-75.512292"><name>WP1abb8a23-095</name></rtept><rtept lat="23.401578" lon="-75.512418"><name>WP1abb8a23-094</name></rtept><rtept lat="23.401280" lon="-75.512705"><name>WP1abb8a23-093</name></rtept><rtept lat="23.401015" lon="-75.513047"><name>WP1abb8a23-092</name></rtept><rtept lat="23.400484" lon="-75.513891"><name>WP1abb8a23-091</name></rtept><rtept lat="23.400185" lon="-75.514304"><name>WP1abb8a23-090</name></rtept><rtept lat="23.399870" lon="-75.514538"><name>WP1abb8a23-089</name></rtept><rtept lat="23.399522" lon="-75.514645"><name>WP1abb8a23-088</name></rtept><rtept lat="23.399373" lon="-75.514663"><name>WP1abb8a23-087</name></rtept><rtept lat="23.398892" lon="-75.514663"><name>WP1abb8a23-086</name></rtept><rtept lat="23.398793" lon="-75.514663"><name>WP1abb8a23-085</name></rtept><rtept lat="23.398013" lon="-75.514610"><name>WP1abb8a23-084</name></rtept><rtept lat="23.396678" lon="-75.514484"><name>WP1abb8a23-083</name></rtept><rtept lat="23.391314" lon="-75.515858"><name>WP1abb8a23-082</name></rtept><rtept lat="23.386447" lon="-75.515041"><name>WP1abb8a23-081</name></rtept><rtept lat="23.386347" lon="-75.515050"><name>WP1abb8a23-080</name></rtept><rtept lat="23.385319" lon="-75.515148"><name>WP1abb8a23-079</name></rtept><rtept lat="23.375119" lon="-75.517727"><name>WP1abb8a23-078</name></rtept><rtept lat="23.372466" lon="-75.518400"><name>WP1abb8a23-077</name></rtept><rtept lat="23.361195" lon="-75.521472"><name>WP1abb8a23-076</name></rtept><rtept lat="23.345769" lon="-75.526332"><name>WP1abb8a23-075</name></rtept><rtept lat="23.344151" lon="-75.526844"><name>WP1abb8a23-074</name></rtept><rtept lat="23.331443" lon="-75.532252"><name>WP1abb8a23-073</name></rtept><rtept lat="23.316694" lon="-75.538845"><name>WP1abb8a23-072</name></rtept><rtept lat="23.294740" lon="-75.548960"><name>WP1abb8a23-071</name></rtept><rtept lat="23.265653" lon="-75.563790"><name>WP1abb8a23-070</name></rtept><rtept lat="23.225361" lon="-75.585924"><name>WP1abb8a23-069</name></rtept><rtept lat="23.219351" lon="-75.589230"><name>WP1abb8a23-068</name></rtept><rtept lat="23.205186" lon="-75.597027"><name>WP1abb8a23-067</name></rtept><rtept lat="23.165291" lon="-75.619600"><name>WP1abb8a23-066</name></rtept><rtept lat="23.143063" lon="-75.631799"><name>WP1abb8a23-065</name></rtept><rtept lat="23.118737" lon="-75.645148"><name>WP1abb8a23-064</name></rtept><rtept lat="23.110079" lon="-75.651319"><name>WP1abb8a23-063</name></rtept><rtept lat="23.101396" lon="-75.657741"><name>WP1abb8a23-062</name></rtept><rtept lat="23.088814" lon="-75.667766"><name>WP1abb8a23-061</name></rtept><rtept lat="23.063464" lon="-75.689729"><name>WP1abb8a23-060</name></rtept><rtept lat="23.045625" lon="-75.704964"><name>WP1abb8a23-059</name></rtept><rtept lat="23.039798" lon="-75.710102"><name>WP1abb8a23-058</name></rtept><rtept lat="23.035175" lon="-75.714028"><name>WP1abb8a23-057</name></rtept><rtept lat="23.032498" lon="-75.715824"><name>WP1abb8a23-003</name></rtept></rte></gpx>