<?xml version="1.0" ?>
<gpx xmlns="http://www.topografix.com/GPX/1/1" xmlns:uuidx="http://www.garmin.com/xmlschemas/IdentifierExtension/v1" xmlns:xsi="http://www.w3.org/2001/XMLSchema" creator="Burnt Toast GPX Creator" version="1.1" xsi:schemaLocation="http://www.topografix.com/GPX/1/1 https://www.topografix.com/GPX/1/1/gpx.xsd http://www.garmin.com/xmlschemas/IdentifierExtension/v1 http://www.garmin.com/xmlschemas/IdentifierExtension.xsd">
  <metadata>
    <author>
      <name>Burnt Toast</name>
      <email id="doug" domain="svburnttoast.com"/>
    </author>
    <copyright author="Douglas Carroll">
      <year>2026</year>
    </copyright>
    <link href="https://svburnttoast.com/">
      <text>SV Burnt Toast</text>
    </link>
    <time>2026-02-04T20:16:58.312Z</time>
    <bounds minlat="24.579167" minlon="-76.821667" maxlat="24.579167" maxlon="-76.821667"/>
  </metadata>
  <wpt lat="24.579167" lon="-76.821667">
    <name>Normans Cay</name>
    <desc/>
    <sym>WayPoint</sym>
    <extensions>
      <uuidx:uuid>b3edb187-5fd8-45e4-851c-d489be1e42ff</uuidx:uuid>
    </extensions>
  </wpt>
</gpx>