<?xml version="1.0" ?>
<gpx xmlns="http://www.topografix.com/GPX/1/1" xmlns:uuidx="http://www.garmin.com/xmlschemas/IdentifierExtension/v1" xmlns:xsi="http://www.w3.org/2001/XMLSchema" creator="Burnt Toast GPX Creator" version="1.1" xsi:schemaLocation="http://www.topografix.com/GPX/1/1 https://www.topografix.com/GPX/1/1/gpx.xsd http://www.garmin.com/xmlschemas/IdentifierExtension/v1 http://www.garmin.com/xmlschemas/IdentifierExtension.xsd">
  <metadata>
    <author>
      <name>Burnt Toast</name>
      <email id="doug" domain="svburnttoast.com"/>
    </author>
    <copyright author="Douglas Carroll">
      <year>2026</year>
    </copyright>
    <link href="https://svburnttoast.com/">
      <text>SV Burnt Toast</text>
    </link>
    <time>2026-02-06T15:35:04.794Z</time>
    <bounds minlat="23.788433" minlon="-76.143417" maxlat="23.788433" maxlon="-76.143417"/>
  </metadata>
  <wpt lat="23.788433" lon="-76.143417">
    <name>Normans Pond Cave</name>
    <desc/>
    <sym>WayPoint</sym>
    <extensions>
      <uuidx:uuid>ebcf01ab-fcd6-4e2c-ad99-864c331676bf</uuidx:uuid>
    </extensions>
  </wpt>
</gpx>