<?xml version="1.0" ?>
<gpx xmlns="http://www.topografix.com/GPX/1/1" xmlns:uuidx="http://www.garmin.com/xmlschemas/IdentifierExtension/v1" xmlns:xsi="http://www.w3.org/2001/XMLSchema" creator="Burnt Toast GPX Creator" version="1.1" xsi:schemaLocation="http://www.topografix.com/GPX/1/1 https://www.topografix.com/GPX/1/1/gpx.xsd http://www.garmin.com/xmlschemas/IdentifierExtension/v1 http://www.garmin.com/xmlschemas/IdentifierExtension.xsd">
  <metadata>
    <author>
      <name>Burnt Toast</name>
      <email id="doug" domain="svburnttoast.com"/>
    </author>
    <copyright author="Douglas Carroll">
      <year>2026</year>
    </copyright>
    <link href="https://svburnttoast.com/">
      <text>SV Burnt Toast</text>
    </link>
    <time>2026-02-04T20:14:53.600Z</time>
    <bounds minlat="24.621667" minlon="-76.791667" maxlat="24.621667" maxlon="-76.791667"/>
  </metadata>
  <wpt lat="24.621667" lon="-76.791667">
    <name>Normans Pond</name>
    <desc/>
    <sym>WayPoint</sym>
    <extensions>
      <uuidx:uuid>4879f8f1-486f-45fb-b05e-2947a14c6a1d</uuidx:uuid>
    </extensions>
  </wpt>
</gpx>