<?xml version="1.0" ?>
<gpx xmlns="http://www.topografix.com/GPX/1/1" xmlns:uuidx="http://www.garmin.com/xmlschemas/IdentifierExtension/v1" xmlns:xsi="http://www.w3.org/2001/XMLSchema" creator="Burnt Toast GPX Creator" version="1.1" xsi:schemaLocation="http://www.topografix.com/GPX/1/1 https://www.topografix.com/GPX/1/1/gpx.xsd http://www.garmin.com/xmlschemas/IdentifierExtension/v1 http://www.garmin.com/xmlschemas/IdentifierExtension.xsd">
  <metadata>
    <author>
      <name>Burnt Toast</name>
      <email id="doug" domain="svburnttoast.com"/>
    </author>
    <copyright author="Douglas Carroll">
      <year>2026</year>
    </copyright>
    <link href="https://svburnttoast.com/">
      <text>SV Burnt Toast</text>
    </link>
    <time>2026-02-04T20:16:06.620Z</time>
    <bounds minlat="24.596667" minlon="-76.790000" maxlat="24.596667" maxlon="-76.790000"/>
  </metadata>
  <wpt lat="24.596667" lon="-76.790000">
    <name>Normans Cut</name>
    <desc/>
    <sym>WayPoint</sym>
    <extensions>
      <uuidx:uuid>63b34531-5f6f-4016-a992-c66e45d93cbd</uuidx:uuid>
    </extensions>
  </wpt>
</gpx>