<?xml version="1.0" ?>
<gpx xmlns="http://www.topografix.com/GPX/1/1" xmlns:uuidx="http://www.garmin.com/xmlschemas/IdentifierExtension/v1" xmlns:xsi="http://www.w3.org/2001/XMLSchema" creator="Burnt Toast GPX Creator" version="1.1" xsi:schemaLocation="http://www.topografix.com/GPX/1/1 https://www.topografix.com/GPX/1/1/gpx.xsd http://www.garmin.com/xmlschemas/IdentifierExtension/v1 http://www.garmin.com/xmlschemas/IdentifierExtension.xsd">
  <metadata>
    <author>
      <name>Burnt Toast</name>
      <email id="doug" domain="svburnttoast.com"/>
    </author>
    <copyright author="Douglas Carroll">
      <year>2026</year>
    </copyright>
    <link href="https://svburnttoast.com/">
      <text>SV Burnt Toast</text>
    </link>
    <time>2026-02-04T20:18:35.226Z</time>
    <bounds minlat="24.595000" minlon="-76.866667" maxlat="24.595000" maxlon="-76.866667"/>
  </metadata>
  <wpt lat="24.595000" lon="-76.866667">
    <name>Normans Stake</name>
    <desc/>
    <sym>WayPoint</sym>
    <extensions>
      <uuidx:uuid>0f0f3258-099b-4cd2-a0fc-be199a3c6cd7</uuidx:uuid>
    </extensions>
  </wpt>
</gpx>