<?xml version="1.0" ?>
<gpx xmlns="http://www.topografix.com/GPX/1/1" xmlns:uuidx="http://www.garmin.com/xmlschemas/IdentifierExtension/v1" xmlns:xsi="http://www.w3.org/2001/XMLSchema" creator="Burnt Toast GPX Creator" version="1.1" xsi:schemaLocation="http://www.topografix.com/GPX/1/1 https://www.topografix.com/GPX/1/1/gpx.xsd http://www.garmin.com/xmlschemas/IdentifierExtension/v1 http://www.garmin.com/xmlschemas/IdentifierExtension.xsd">
  <metadata>
    <author>
      <name>Burnt Toast</name>
      <email id="doug" domain="svburnttoast.com"/>
    </author>
    <copyright author="Douglas Carroll">
      <year>2026</year>
    </copyright>
    <link href="https://svburnttoast.com/">
      <text>SV Burnt Toast</text>
    </link>
    <time>2026-02-15T12:24:21.002Z</time>
    <bounds minlat="23.495000" minlon="-75.666667" maxlat="23.495000" maxlon="-75.666667"/>
  </metadata>
  <wpt lat="23.495000" lon="-75.666667">
    <name>North Channel Rocks</name>
    <desc/>
    <sym>WayPoint</sym>
    <extensions>
      <uuidx:uuid>aa02d8d0-edf3-4677-90a7-2c2989bfbc0c</uuidx:uuid>
    </extensions>
  </wpt>
</gpx>