<?xml version="1.0" ?>
<gpx xmlns="http://www.topografix.com/GPX/1/1" xmlns:uuidx="http://www.garmin.com/xmlschemas/IdentifierExtension/v1" xmlns:xsi="http://www.w3.org/2001/XMLSchema" creator="Burnt Toast GPX Creator" version="1.1" xsi:schemaLocation="http://www.topografix.com/GPX/1/1 https://www.topografix.com/GPX/1/1/gpx.xsd http://www.garmin.com/xmlschemas/IdentifierExtension/v1 http://www.garmin.com/xmlschemas/IdentifierExtension.xsd">
  <metadata>
    <author>
      <name>Burnt Toast</name>
      <email id="doug" domain="svburnttoast.com"/>
    </author>
    <copyright author="Douglas Carroll">
      <year>2026</year>
    </copyright>
    <link href="https://svburnttoast.com/">
      <text>SV Burnt Toast</text>
    </link>
    <time>2026-02-20T16:59:37.428Z</time>
    <bounds minlat="23.735000" minlon="-76.035000" maxlat="23.735000" maxlon="-76.035000"/>
  </metadata>
  <wpt lat="23.735000" lon="-76.035000">
    <name>Rat Cay Cut</name>
    <desc/>
    <sym>WayPoint</sym>
    <extensions>
      <uuidx:uuid>8d0922c5-d6d7-44d9-a9f3-211eb8c947c7</uuidx:uuid>
    </extensions>
  </wpt>
</gpx>