<?xml version="1.0" ?>
<gpx xmlns="http://www.topografix.com/GPX/1/1" xmlns:uuidx="http://www.garmin.com/xmlschemas/IdentifierExtension/v1" xmlns:xsi="http://www.w3.org/2001/XMLSchema" creator="Burnt Toast GPX Creator" version="1.1" xsi:schemaLocation="http://www.topografix.com/GPX/1/1 https://www.topografix.com/GPX/1/1/gpx.xsd http://www.garmin.com/xmlschemas/IdentifierExtension/v1 http://www.garmin.com/xmlschemas/IdentifierExtension.xsd">
  <metadata>
    <author>
      <name>Burnt Toast</name>
      <email id="doug" domain="svburnttoast.com"/>
    </author>
    <copyright author="Douglas Carroll">
      <year>2026</year>
    </copyright>
    <link href="https://svburnttoast.com/">
      <text>SV Burnt Toast</text>
    </link>
    <time>2026-02-11T01:18:05.149Z</time>
    <bounds minlat="24.250000" minlon="-76.583333" maxlat="24.250000" maxlon="-76.583333"/>
  </metadata>
  <wpt lat="24.250000" lon="-76.583333">
    <name>Rocky Dundas Bore</name>
    <desc/>
    <sym>WayPoint</sym>
    <extensions>
      <uuidx:uuid>b368ec70-e015-4c3b-b374-f0b8a87d18a1</uuidx:uuid>
    </extensions>
  </wpt>
</gpx>