<?xml version="1.0" ?>
<gpx xmlns="http://www.topografix.com/GPX/1/1" xmlns:uuidx="http://www.garmin.com/xmlschemas/IdentifierExtension/v1" xmlns:xsi="http://www.w3.org/2001/XMLSchema" creator="Burnt Toast GPX Creator" version="1.1" xsi:schemaLocation="http://www.topografix.com/GPX/1/1 https://www.topografix.com/GPX/1/1/gpx.xsd http://www.garmin.com/xmlschemas/IdentifierExtension/v1 http://www.garmin.com/xmlschemas/IdentifierExtension.xsd">
  <metadata>
    <author>
      <name>Burnt Toast</name>
      <email id="doug" domain="svburnttoast.com"/>
    </author>
    <copyright author="Douglas Carroll">
      <year>2026</year>
    </copyright>
    <link href="https://svburnttoast.com/">
      <text>SV Burnt Toast</text>
    </link>
    <time>2026-02-20T17:12:06.433Z</time>
    <bounds minlat="23.506833" minlon="-75.745000" maxlat="23.506833" maxlon="-75.745000"/>
  </metadata>
  <wpt lat="23.506833" lon="-75.745000">
    <name>Sand Dollar</name>
    <desc/>
    <sym>WayPoint</sym>
    <extensions>
      <uuidx:uuid>70798778-a2b1-450c-a07b-b470b8814ab3</uuidx:uuid>
    </extensions>
  </wpt>
</gpx>