<?xml version="1.0" encoding="UTF-8"?>
<gpx creator="Orca App" version="1.1" xmlns="http://www.topografix.com/GPX/1/1" xmlns:uuidx="http://www.garmin.com/xmlschemas/IdentifierExtension/v1" xmlns:xsi="http://www.w3.org/2001/XMLSchema" xsi:schemaLocation="http://www.topografix.com/GPX/1/1 https://www.topografix.com/GPX/1/1/gpx.xsd http://www.garmin.com/xmlschemas/IdentifierExtension/v1 http://www.garmin.com/xmlschemas/IdentifierExtension.xsd"><metadata><author><name>Douglas Carroll</name><email id="doug.wm7i" domain="gmail.com"/></author><copyright author="Douglas Carroll"><year>2026</year></copyright><link href="https://getorca.com/"><text>Orca - The Marine CoPilot - Your next chartplotter</text></link><time>2026-02-09T23:14:20.493Z</time><bounds minlat="24.295832815805" minlon="-76.82152814727885" maxlat="24.531464" maxlon="-76.62500113248825"/></metadata><rte><name>Shroud to Bell</name><extensions><uuidx:uuid>825c0be1-f165-4bd6-b873-817909b44ec5</uuidx:uuid></extensions><rtept lat="24.531464" lon="-76.797396"><sym>WayPoint</sym></rtept><rtept lat="24.51489070878685" lon="-76.82152814727885"><sym>WayPoint</sym></rtept><rtept lat="24.51489070878685" lon="-76.82152814727885"><sym>WayPoint</sym></rtept><rtept lat="24.44101088116268" lon="-76.79111364206472"><sym>WayPoint</sym></rtept><rtept lat="24.42340737887936" lon="-76.78350579421925"><sym>WayPoint</sym></rtept><rtept lat="24.42340737887936" lon="-76.78350579421925"><sym>WayPoint</sym></rtept><rtept lat="24.37504523963626" lon="-76.73328523746684"><sym>WayPoint</sym></rtept><rtept lat="24.37504523963626" lon="-76.73328523746684"><sym>WayPoint</sym></rtept><rtept lat="24.35512662916678" lon="-76.70168612252544"><sym>WayPoint</sym></rtept><rtept lat="24.35512662916678" lon="-76.70168612252544"><sym>WayPoint</sym></rtept><rtept lat="24.295832815805" lon="-76.62500113248825"><sym>WayPoint</sym></rtept></rte></gpx>