<?xml version="1.0" ?>
<gpx xmlns="http://www.topografix.com/GPX/1/1" xmlns:uuidx="http://www.garmin.com/xmlschemas/IdentifierExtension/v1" xmlns:xsi="http://www.w3.org/2001/XMLSchema" creator="Burnt Toast GPX Creator" version="1.1" xsi:schemaLocation="http://www.topografix.com/GPX/1/1 https://www.topografix.com/GPX/1/1/gpx.xsd http://www.garmin.com/xmlschemas/IdentifierExtension/v1 http://www.garmin.com/xmlschemas/IdentifierExtension.xsd">
  <metadata>
    <author>
      <name>Burnt Toast</name>
      <email id="doug" domain="svburnttoast.com"/>
    </author>
    <copyright author="Douglas Carroll">
      <year>2026</year>
    </copyright>
    <link href="https://svburnttoast.com/">
      <text>SV Burnt Toast</text>
    </link>
    <time>2026-02-20T17:09:24.763Z</time>
    <bounds minlat="23.560833" minlon="-75.810833" maxlat="23.560833" maxlon="-75.810833"/>
  </metadata>
  <wpt lat="23.560833" lon="-75.810833">
    <name>Smith Cays</name>
    <desc/>
    <sym>WayPoint</sym>
    <extensions>
      <uuidx:uuid>8e75f0e9-c85d-4668-a578-8f867a383384</uuidx:uuid>
    </extensions>
  </wpt>
</gpx>