<?xml version="1.0" ?>
<gpx xmlns="http://www.topografix.com/GPX/1/1" xmlns:uuidx="http://www.garmin.com/xmlschemas/IdentifierExtension/v1" xmlns:xsi="http://www.w3.org/2001/XMLSchema" creator="Burnt Toast GPX Creator" version="1.1" xsi:schemaLocation="http://www.topografix.com/GPX/1/1 https://www.topografix.com/GPX/1/1/gpx.xsd http://www.garmin.com/xmlschemas/IdentifierExtension/v1 http://www.garmin.com/xmlschemas/IdentifierExtension.xsd">
  <metadata>
    <author>
      <name>Burnt Toast</name>
      <email id="doug" domain="svburnttoast.com"/>
    </author>
    <copyright author="Douglas Carroll">
      <year>2026</year>
    </copyright>
    <link href="https://svburnttoast.com/">
      <text>SV Burnt Toast</text>
    </link>
    <time>2026-02-19T16:37:16.361Z</time>
    <bounds minlat="23.800500" minlon="-76.214667" maxlat="23.800500" maxlon="-76.214667"/>
  </metadata>
  <wpt lat="23.800500" lon="-76.214667">
    <name>South Pimlico</name>
    <desc/>
    <sym>WayPoint</sym>
    <extensions>
      <uuidx:uuid>aa0af6dd-f38c-407e-9a51-93e050d92965</uuidx:uuid>
    </extensions>
  </wpt>
</gpx>