<?xml version="1.0" ?>
<gpx xmlns="http://www.topografix.com/GPX/1/1" xmlns:uuidx="http://www.garmin.com/xmlschemas/IdentifierExtension/v1" xmlns:xsi="http://www.w3.org/2001/XMLSchema" creator="Burnt Toast GPX Creator" version="1.1" xsi:schemaLocation="http://www.topografix.com/GPX/1/1 https://www.topografix.com/GPX/1/1/gpx.xsd http://www.garmin.com/xmlschemas/IdentifierExtension/v1 http://www.garmin.com/xmlschemas/IdentifierExtension.xsd">
  <metadata>
    <author>
      <name>Burnt Toast</name>
      <email id="doug" domain="svburnttoast.com"/>
    </author>
    <copyright author="Douglas Carroll">
      <year>2026</year>
    </copyright>
    <link href="https://svburnttoast.com/">
      <text>SV Burnt Toast</text>
    </link>
    <time>2026-02-23T11:12:15.351Z</time>
    <bounds minlat="23.490333" minlon="-75.699167" maxlat="23.490333" maxlon="-75.699167"/>
  </metadata>
  <wpt lat="23.490333" lon="-75.699167">
    <name>Three Fathom</name>
    <desc/>
    <sym>WayPoint</sym>
    <extensions>
      <uuidx:uuid>608f9cdf-c450-4479-b6f3-4c12e9862040</uuidx:uuid>
    </extensions>
  </wpt>
</gpx>