<?xml version="1.0" ?>
<gpx xmlns="http://www.topografix.com/GPX/1/1" xmlns:uuidx="http://www.garmin.com/xmlschemas/IdentifierExtension/v1" xmlns:xsi="http://www.w3.org/2001/XMLSchema" creator="Burnt Toast GPX Creator" version="1.1" xsi:schemaLocation="http://www.topografix.com/GPX/1/1 https://www.topografix.com/GPX/1/1/gpx.xsd http://www.garmin.com/xmlschemas/IdentifierExtension/v1 http://www.garmin.com/xmlschemas/IdentifierExtension.xsd">
  <metadata>
    <author>
      <name>Burnt Toast</name>
      <email id="doug" domain="svburnttoast.com"/>
    </author>
    <copyright author="Douglas Carroll">
      <year>2026</year>
    </copyright>
    <link href="https://svburnttoast.com/">
      <text>SV Burnt Toast</text>
    </link>
    <time>2026-02-16T20:49:59.013Z</time>
    <bounds minlat="24.033333" minlon="-76.383333" maxlat="24.033333" maxlon="-76.383333"/>
  </metadata>
  <wpt lat="24.033333" lon="-76.383333">
    <name>White Point</name>
    <desc/>
    <sym>WayPoint</sym>
    <extensions>
      <uuidx:uuid>be5436f3-9349-4912-8d3b-c6b3b2a01308</uuidx:uuid>
    </extensions>
  </wpt>
</gpx>