<?xml version="1.0" ?>
<gpx xmlns="http://www.topografix.com/GPX/1/1" xmlns:uuidx="http://www.garmin.com/xmlschemas/IdentifierExtension/v1" xmlns:xsi="http://www.w3.org/2001/XMLSchema" creator="Burnt Toast GPX Creator" version="1.1" xsi:schemaLocation="http://www.topografix.com/GPX/1/1 https://www.topografix.com/GPX/1/1/gpx.xsd http://www.garmin.com/xmlschemas/IdentifierExtension/v1 http://www.garmin.com/xmlschemas/IdentifierExtension.xsd">
  <metadata>
    <author>
      <name>Burnt Toast</name>
      <email id="doug" domain="svburnttoast.com"/>
    </author>
    <copyright author="Douglas Carroll">
      <year>2026</year>
    </copyright>
    <link href="https://svburnttoast.com/">
      <text>SV Burnt Toast</text>
    </link>
    <time>2026-03-15T15:35:36.490Z</time>
    <bounds minlat="22.350000" minlon="-73.191667" maxlat="22.350000" maxlon="-73.191667"/>
  </metadata>
  <wpt lat="22.350000" lon="-73.191667">
    <name>Devils Point</name>
    <desc/>
    <sym>WayPoint</sym>
    <extensions>
      <uuidx:uuid>2e955085-7fd8-471c-aba6-bde1050080f3</uuidx:uuid>
    </extensions>
  </wpt>
</gpx>