<?xml version="1.0" ?>
<gpx xmlns="http://www.topografix.com/GPX/1/1" xmlns:uuidx="http://www.garmin.com/xmlschemas/IdentifierExtension/v1" xmlns:xsi="http://www.w3.org/2001/XMLSchema" creator="Burnt Toast GPX Creator" version="1.1" xsi:schemaLocation="http://www.topografix.com/GPX/1/1 https://www.topografix.com/GPX/1/1/gpx.xsd http://www.garmin.com/xmlschemas/IdentifierExtension/v1 http://www.garmin.com/xmlschemas/IdentifierExtension.xsd">
  <metadata>
    <author>
      <name>Burnt Toast</name>
      <email id="doug" domain="svburnttoast.com"/>
    </author>
    <copyright author="Douglas Carroll">
      <year>2026</year>
    </copyright>
    <link href="https://svburnttoast.com/">
      <text>SV Burnt Toast</text>
    </link>
    <time>2026-02-07T21:04:30.428Z</time>
    <bounds minlat="17.000000" minlon="-61.916667" maxlat="17.000000" maxlon="-61.916667"/>
  </metadata>
  <wpt lat="17.000000" lon="-61.916667">
    <name>Antigua SW</name>
    <desc/>
    <sym>WayPoint</sym>
    <extensions>
      <uuidx:uuid>dcd2e896-820e-4c32-aa81-cf2a26536f24</uuidx:uuid>
    </extensions>
  </wpt>
</gpx>