<?xml version="1.0" ?>
<gpx xmlns="http://www.topografix.com/GPX/1/1" xmlns:uuidx="http://www.garmin.com/xmlschemas/IdentifierExtension/v1" xmlns:xsi="http://www.w3.org/2001/XMLSchema" creator="Burnt Toast GPX Creator" version="1.1" xsi:schemaLocation="http://www.topografix.com/GPX/1/1 https://www.topografix.com/GPX/1/1/gpx.xsd http://www.garmin.com/xmlschemas/IdentifierExtension/v1 http://www.garmin.com/xmlschemas/IdentifierExtension.xsd">
  <metadata>
    <author>
      <name>Burnt Toast</name>
      <email id="doug" domain="svburnttoast.com"/>
    </author>
    <copyright author="Douglas Carroll">
      <year>2026</year>
    </copyright>
    <link href="https://svburnttoast.com/">
      <text>SV Burnt Toast</text>
    </link>
    <time>2026-02-07T20:59:50.984Z</time>
    <bounds minlat="19.400000" minlon="-69.166667" maxlat="19.400000" maxlon="-69.166667"/>
  </metadata>
  <wpt lat="19.400000" lon="-69.166667">
    <name>Cabron</name>
    <desc/>
    <sym>WayPoint</sym>
    <extensions>
      <uuidx:uuid>db7e1d36-ddfc-4bdb-95e8-0329a79940a1</uuidx:uuid>
    </extensions>
  </wpt>
</gpx>