<?xml version="1.0" ?>
<gpx xmlns="http://www.topografix.com/GPX/1/1" xmlns:uuidx="http://www.garmin.com/xmlschemas/IdentifierExtension/v1" xmlns:xsi="http://www.w3.org/2001/XMLSchema" creator="Burnt Toast GPX Creator" version="1.1" xsi:schemaLocation="http://www.topografix.com/GPX/1/1 https://www.topografix.com/GPX/1/1/gpx.xsd http://www.garmin.com/xmlschemas/IdentifierExtension/v1 http://www.garmin.com/xmlschemas/IdentifierExtension.xsd">
  <metadata>
    <author>
      <name>Burnt Toast</name>
      <email id="doug" domain="svburnttoast.com"/>
    </author>
    <copyright author="Douglas Carroll">
      <year>2026</year>
    </copyright>
    <link href="https://svburnttoast.com/">
      <text>SV Burnt Toast</text>
    </link>
    <time>2026-02-07T20:59:05.982Z</time>
    <bounds minlat="19.750000" minlon="-69.883333" maxlat="19.750000" maxlon="-69.883333"/>
  </metadata>
  <wpt lat="19.750000" lon="-69.883333">
    <name>Frances</name>
    <desc/>
    <sym>WayPoint</sym>
    <extensions>
      <uuidx:uuid>466f59b5-349c-4623-a21d-197067b5529c</uuidx:uuid>
    </extensions>
  </wpt>
</gpx>