<?xml version="1.0" ?>
<gpx xmlns="http://www.topografix.com/GPX/1/1" xmlns:uuidx="http://www.garmin.com/xmlschemas/IdentifierExtension/v1" xmlns:xsi="http://www.w3.org/2001/XMLSchema" creator="Burnt Toast GPX Creator" version="1.1" xsi:schemaLocation="http://www.topografix.com/GPX/1/1 https://www.topografix.com/GPX/1/1/gpx.xsd http://www.garmin.com/xmlschemas/IdentifierExtension/v1 http://www.garmin.com/xmlschemas/IdentifierExtension.xsd">
  <metadata>
    <author>
      <name>Burnt Toast</name>
      <email id="doug" domain="svburnttoast.com"/>
    </author>
    <copyright author="Douglas Carroll">
      <year>2026</year>
    </copyright>
    <link href="https://svburnttoast.com/">
      <text>SV Burnt Toast</text>
    </link>
    <time>2026-02-07T20:57:29.075Z</time>
    <bounds minlat="19.950000" minlon="-71.000000" maxlat="19.950000" maxlon="-71.000000"/>
  </metadata>
  <wpt lat="19.950000" lon="-71.000000">
    <name>Isabela</name>
    <desc/>
    <sym>WayPoint</sym>
    <extensions>
      <uuidx:uuid>c1f43a75-c9d0-43ac-8de3-c20f0d729d15</uuidx:uuid>
    </extensions>
  </wpt>
</gpx>