<?xml version="1.0" ?>
<gpx xmlns="http://www.topografix.com/GPX/1/1" xmlns:uuidx="http://www.garmin.com/xmlschemas/IdentifierExtension/v1" xmlns:xsi="http://www.w3.org/2001/XMLSchema" creator="Burnt Toast GPX Creator" version="1.1" xsi:schemaLocation="http://www.topografix.com/GPX/1/1 https://www.topografix.com/GPX/1/1/gpx.xsd http://www.garmin.com/xmlschemas/IdentifierExtension/v1 http://www.garmin.com/xmlschemas/IdentifierExtension.xsd">
  <metadata>
    <author>
      <name>Burnt Toast</name>
      <email id="doug" domain="svburnttoast.com"/>
    </author>
    <copyright author="Douglas Carroll">
      <year>2026</year>
    </copyright>
    <link href="https://svburnttoast.com/">
      <text>SV Burnt Toast</text>
    </link>
    <time>2026-02-07T21:01:41.749Z</time>
    <bounds minlat="17.983333" minlon="-67.600000" maxlat="17.983333" maxlon="-67.600000"/>
  </metadata>
  <wpt lat="17.983333" lon="-67.600000">
    <name>Mona SE</name>
    <desc/>
    <sym>WayPoint</sym>
    <extensions>
      <uuidx:uuid>116bacca-f039-44ff-80b8-03f7f4c232fd</uuidx:uuid>
    </extensions>
  </wpt>
</gpx>