<?xml version="1.0" ?>
<gpx xmlns="http://www.topografix.com/GPX/1/1" xmlns:uuidx="http://www.garmin.com/xmlschemas/IdentifierExtension/v1" xmlns:xsi="http://www.w3.org/2001/XMLSchema" creator="Burnt Toast GPX Creator" version="1.1" xsi:schemaLocation="http://www.topografix.com/GPX/1/1 https://www.topografix.com/GPX/1/1/gpx.xsd http://www.garmin.com/xmlschemas/IdentifierExtension/v1 http://www.garmin.com/xmlschemas/IdentifierExtension.xsd">
  <metadata>
    <author>
      <name>Burnt Toast</name>
      <email id="doug" domain="svburnttoast.com"/>
    </author>
    <copyright author="Douglas Carroll">
      <year>2026</year>
    </copyright>
    <link href="https://svburnttoast.com/">
      <text>SV Burnt Toast</text>
    </link>
    <time>2026-02-07T21:03:42.316Z</time>
    <bounds minlat="17.050000" minlon="-62.600000" maxlat="17.050000" maxlon="-62.600000"/>
  </metadata>
  <wpt lat="17.050000" lon="-62.600000">
    <name>Nevis</name>
    <desc/>
    <sym>WayPoint</sym>
    <extensions>
      <uuidx:uuid>435a8dd4-ce07-4e8e-9802-0627ab47483d</uuidx:uuid>
    </extensions>
  </wpt>
</gpx>