<?xml version="1.0" ?>
<gpx xmlns="http://www.topografix.com/GPX/1/1" xmlns:uuidx="http://www.garmin.com/xmlschemas/IdentifierExtension/v1" xmlns:xsi="http://www.w3.org/2001/XMLSchema" creator="Burnt Toast GPX Creator" version="1.1" xsi:schemaLocation="http://www.topografix.com/GPX/1/1 https://www.topografix.com/GPX/1/1/gpx.xsd http://www.garmin.com/xmlschemas/IdentifierExtension/v1 http://www.garmin.com/xmlschemas/IdentifierExtension.xsd">
  <metadata>
    <author>
      <name>Burnt Toast</name>
      <email id="doug" domain="svburnttoast.com"/>
    </author>
    <copyright author="Douglas Carroll">
      <year>2026</year>
    </copyright>
    <link href="https://svburnttoast.com/">
      <text>SV Burnt Toast</text>
    </link>
    <time>2026-02-07T20:58:18.945Z</time>
    <bounds minlat="19.933333" minlon="-70.833333" maxlat="19.933333" maxlon="-70.833333"/>
  </metadata>
  <wpt lat="19.933333" lon="-70.833333">
    <name>Patilla</name>
    <desc/>
    <sym>WayPoint</sym>
    <extensions>
      <uuidx:uuid>0d96a5bb-edda-4b5b-abde-555a1aeb1f81</uuidx:uuid>
    </extensions>
  </wpt>
</gpx>