<?xml version="1.0" encoding="UTF-8"?>
<gpx creator="Orca App" version="1.1" xmlns="http://www.topografix.com/GPX/1/1" xmlns:uuidx="http://www.garmin.com/xmlschemas/IdentifierExtension/v1" xmlns:xsi="http://www.w3.org/2001/XMLSchema" xsi:schemaLocation="http://www.topografix.com/GPX/1/1 https://www.topografix.com/GPX/1/1/gpx.xsd http://www.garmin.com/xmlschemas/IdentifierExtension/v1 http://www.garmin.com/xmlschemas/IdentifierExtension.xsd"><metadata><author><name>Douglas Carroll</name><email id="doug.wm7i" domain="gmail.com"/></author><copyright author="Douglas Carroll"><year>2026</year></copyright><link href="https://getorca.com/"><text>Orca - The Marine CoPilot - Your next chartplotter</text></link><time>2026-02-07T21:16:53.079Z</time><bounds minlat="16.999993659382326" minlon="-74.5334798" maxlat="24.04951049999999" maxlon="-61.91662788391113"/></metadata><rte><name>Route AN113E</name><extensions><uuidx:uuid>3706f326-c7c3-4367-a9e5-2eb896bf1475</uuidx:uuid></extensions><rtept lat="24.0494818828338" lon="-74.5335293949888"><sym>WayPoint</sym></rtept><rtept lat="24.00936979301742" lon="-74.54305156077852"><sym>WayPoint</sym></rtept><rtept lat="24.00746482755201" lon="-74.54368382450433"><sym>WayPoint</sym></rtept><rtept lat="24.00615236015867" lon="-74.54419451544584"><sym>WayPoint</sym></rtept><rtept lat="23.94603603194475" lon="-74.56936865455043"><sym>WayPoint</sym></rtept><rtept lat="23.944973837554" lon="-74.56955582968645"><sym>WayPoint</sym></rtept><rtept lat="23.94486036903526" lon="-74.5695676153277"><sym>WayPoint</sym></rtept><rtept lat="23.94461381506646" lon="-74.56954514969304"><sym>WayPoint</sym></rtept><rtept lat="23.9442719356045" lon="-74.56949125077598"><sym>WayPoint</sym></rtept><rtept lat="23.94405388771283" lon="-74.56941291989085"><sym>WayPoint</sym></rtept><rtept lat="23.94383975511781" lon="-74.56927732464077"><sym>WayPoint</sym></rtept><rtept lat="23.9438351939243" lon="-74.56927361145041"><sym>WayPoint</sym></rtept><rtept lat="22.26658502680499" lon="-72.36667471810328"><sym>WayPoint</sym></rtept><rtept lat="22.26658502680499" lon="-72.36667471810328"><sym>WayPoint</sym></rtept><rtept lat="21.49998308211271" lon="-72.73322828122095"><sym>WayPoint</sym></rtept><rtept lat="21.49998308211271" lon="-72.73322828122095"><sym>WayPoint</sym></rtept><rtept lat="19.95005519902542" lon="-71.00009679431454"><sym>WayPoint</sym></rtept><rtept lat="19.95005519902542" lon="-71.00009679431454"><sym>WayPoint</sym></rtept><rtept lat="19.93334866976694" lon="-70.83333146873349"><sym>WayPoint</sym></rtept><rtept lat="19.93334866976694" lon="-70.83333146873349"><sym>WayPoint</sym></rtept><rtept lat="19.75000794033734" lon="-69.88336084044914"><sym>WayPoint</sym></rtept><rtept lat="19.75000794033734" lon="-69.88336084044914"><sym>WayPoint</sym></rtept><rtept lat="19.39995743720833" lon="-69.1665989596164"><sym>WayPoint</sym></rtept><rtept lat="19.39995743720833" lon="-69.1665989596164"><sym>WayPoint</sym></rtept><rtept lat="18.66664741578522" lon="-68.16662962109032"><sym>WayPoint</sym></rtept><rtept lat="18.66664741578522" lon="-68.16662962109032"><sym>WayPoint</sym></rtept><rtept lat="17.98341852180364" lon="-67.60005634746928"><sym>WayPoint</sym></rtept><rtept lat="17.98341852180364" lon="-67.60005634746928"><sym>WayPoint</sym></rtept><rtept lat="17.75002676432876" lon="-67.19997074496457"><sym>WayPoint</sym></rtept><rtept lat="17.75002676432876" lon="-67.19997074496457"><sym>WayPoint</sym></rtept><rtept lat="17.17586653759949" lon="-63.69683390281099"><sym>WayPoint</sym></rtept><rtept lat="17.04995655542913" lon="-62.60000325450149"><sym>WayPoint</sym></rtept><rtept lat="17.04995655542913" lon="-62.60000325450149"><sym>WayPoint</sym></rtept><rtept lat="16.99999365938232" lon="-61.91662788391113"><sym>WayPoint</sym></rtept></rte></gpx>