<?xml version="1.0" ?>
<gpx xmlns="http://www.topografix.com/GPX/1/1" xmlns:uuidx="http://www.garmin.com/xmlschemas/IdentifierExtension/v1" xmlns:xsi="http://www.w3.org/2001/XMLSchema" creator="Burnt Toast GPX Creator" version="1.1" xsi:schemaLocation="http://www.topografix.com/GPX/1/1 https://www.topografix.com/GPX/1/1/gpx.xsd http://www.garmin.com/xmlschemas/IdentifierExtension/v1 http://www.garmin.com/xmlschemas/IdentifierExtension.xsd">
  <metadata>
    <author>
      <name>Burnt Toast</name>
      <email id="doug" domain="svburnttoast.com"/>
    </author>
    <copyright author="Douglas Carroll">
      <year>2026</year>
    </copyright>
    <link href="https://svburnttoast.com/">
      <text>SV Burnt Toast</text>
    </link>
    <time>2026-03-10T13:14:06.909Z</time>
    <bounds minlat="23.433333" minlon="-75.233333" maxlat="23.433333" maxlon="-75.233333"/>
  </metadata>
  <wpt lat="23.433333" lon="-75.233333">
    <name>Bains Bluff</name>
    <desc/>
    <sym>WayPoint</sym>
    <extensions>
      <uuidx:uuid>adfe2507-a416-4564-862a-0dd8a3bdba14</uuidx:uuid>
    </extensions>
  </wpt>
</gpx>