<?xml version="1.0" ?>
<gpx xmlns="http://www.topografix.com/GPX/1/1" xmlns:uuidx="http://www.garmin.com/xmlschemas/IdentifierExtension/v1" xmlns:xsi="http://www.w3.org/2001/XMLSchema" creator="Burnt Toast GPX Creator" version="1.1" xsi:schemaLocation="http://www.topografix.com/GPX/1/1 https://www.topografix.com/GPX/1/1/gpx.xsd http://www.garmin.com/xmlschemas/IdentifierExtension/v1 http://www.garmin.com/xmlschemas/IdentifierExtension.xsd">
  <metadata>
    <author>
      <name>Burnt Toast</name>
      <email id="doug" domain="svburnttoast.com"/>
    </author>
    <copyright author="Douglas Carroll">
      <year>2026</year>
    </copyright>
    <link href="https://svburnttoast.com/">
      <text>SV Burnt Toast</text>
    </link>
    <time>2026-03-10T13:21:49.972Z</time>
    <bounds minlat="23.125000" minlon="-74.950000" maxlat="23.125000" maxlon="-74.950000"/>
  </metadata>
  <wpt lat="23.125000" lon="-74.950000">
    <name>Booby Rock</name>
    <desc/>
    <sym>WayPoint</sym>
    <extensions>
      <uuidx:uuid>856c7bf3-28ba-470d-9398-ef7c358a354a</uuidx:uuid>
    </extensions>
  </wpt>
</gpx>