<?xml version="1.0" ?>
<gpx xmlns="http://www.topografix.com/GPX/1/1" xmlns:uuidx="http://www.garmin.com/xmlschemas/IdentifierExtension/v1" xmlns:xsi="http://www.w3.org/2001/XMLSchema" creator="Burnt Toast GPX Creator" version="1.1" xsi:schemaLocation="http://www.topografix.com/GPX/1/1 https://www.topografix.com/GPX/1/1/gpx.xsd http://www.garmin.com/xmlschemas/IdentifierExtension/v1 http://www.garmin.com/xmlschemas/IdentifierExtension.xsd">
  <metadata>
    <author>
      <name>Burnt Toast</name>
      <email id="doug" domain="svburnttoast.com"/>
    </author>
    <copyright author="Douglas Carroll">
      <year>2026</year>
    </copyright>
    <link href="https://svburnttoast.com/">
      <text>SV Burnt Toast</text>
    </link>
    <time>2026-03-10T13:23:46.051Z</time>
    <bounds minlat="22.863333" minlon="-74.813333" maxlat="22.863333" maxlon="-74.813333"/>
  </metadata>
  <wpt lat="22.863333" lon="-74.813333">
    <name>Cape Verde</name>
    <desc/>
    <sym>WayPoint</sym>
    <extensions>
      <uuidx:uuid>3c5f1fd2-3ccd-4efc-aad8-be90c46980ea</uuidx:uuid>
    </extensions>
  </wpt>
</gpx>