<?xml version="1.0" ?>
<gpx xmlns="http://www.topografix.com/GPX/1/1" xmlns:uuidx="http://www.garmin.com/xmlschemas/IdentifierExtension/v1" xmlns:xsi="http://www.w3.org/2001/XMLSchema" creator="Burnt Toast GPX Creator" version="1.1" xsi:schemaLocation="http://www.topografix.com/GPX/1/1 https://www.topografix.com/GPX/1/1/gpx.xsd http://www.garmin.com/xmlschemas/IdentifierExtension/v1 http://www.garmin.com/xmlschemas/IdentifierExtension.xsd">
  <metadata>
    <author>
      <name>Burnt Toast</name>
      <email id="doug" domain="svburnttoast.com"/>
    </author>
    <copyright author="Douglas Carroll">
      <year>2026</year>
    </copyright>
    <link href="https://svburnttoast.com/">
      <text>SV Burnt Toast</text>
    </link>
    <time>2026-03-10T13:19:34.133Z</time>
    <bounds minlat="23.144167" minlon="-75.266667" maxlat="23.144167" maxlon="-75.266667"/>
  </metadata>
  <wpt lat="23.144167" lon="-75.266667">
    <name>Dollar Harbour Approach</name>
    <desc/>
    <sym>WayPoint</sym>
    <extensions>
      <uuidx:uuid>b528e49e-1ca2-4588-a3a5-1766547434ea</uuidx:uuid>
    </extensions>
  </wpt>
</gpx>