<?xml version="1.0" ?>
<gpx xmlns="http://www.topografix.com/GPX/1/1" xmlns:uuidx="http://www.garmin.com/xmlschemas/IdentifierExtension/v1" xmlns:xsi="http://www.w3.org/2001/XMLSchema" creator="Burnt Toast GPX Creator" version="1.1" xsi:schemaLocation="http://www.topografix.com/GPX/1/1 https://www.topografix.com/GPX/1/1/gpx.xsd http://www.garmin.com/xmlschemas/IdentifierExtension/v1 http://www.garmin.com/xmlschemas/IdentifierExtension.xsd">
  <metadata>
    <author>
      <name>Burnt Toast</name>
      <email id="doug" domain="svburnttoast.com"/>
    </author>
    <copyright author="Douglas Carroll">
      <year>2026</year>
    </copyright>
    <link href="https://svburnttoast.com/">
      <text>SV Burnt Toast</text>
    </link>
    <time>2026-03-10T13:19:02.286Z</time>
    <bounds minlat="23.169167" minlon="-75.260000" maxlat="23.169167" maxlon="-75.260000"/>
  </metadata>
  <wpt lat="23.169167" lon="-75.260000">
    <name>Dollar Harbour</name>
    <desc/>
    <sym>WayPoint</sym>
    <extensions>
      <uuidx:uuid>ae815477-8f5a-4213-bf16-b0ccbc50d0c6</uuidx:uuid>
    </extensions>
  </wpt>
</gpx>