<?xml version="1.0" ?>
<gpx xmlns="http://www.topografix.com/GPX/1/1" xmlns:uuidx="http://www.garmin.com/xmlschemas/IdentifierExtension/v1" xmlns:xsi="http://www.w3.org/2001/XMLSchema" creator="Burnt Toast GPX Creator" version="1.1" xsi:schemaLocation="http://www.topografix.com/GPX/1/1 https://www.topografix.com/GPX/1/1/gpx.xsd http://www.garmin.com/xmlschemas/IdentifierExtension/v1 http://www.garmin.com/xmlschemas/IdentifierExtension.xsd">
  <metadata>
    <author>
      <name>Burnt Toast</name>
      <email id="doug" domain="svburnttoast.com"/>
    </author>
    <copyright author="Douglas Carroll">
      <year>2026</year>
    </copyright>
    <link href="https://svburnttoast.com/">
      <text>SV Burnt Toast</text>
    </link>
    <time>2026-03-10T13:23:21.237Z</time>
    <bounds minlat="22.977500" minlon="-74.841667" maxlat="22.977500" maxlon="-74.841667"/>
  </metadata>
  <wpt lat="22.977500" lon="-74.841667">
    <name>Little Harbour</name>
    <desc/>
    <sym>WayPoint</sym>
    <extensions>
      <uuidx:uuid>3cd789b7-2678-46d5-a2fe-ae31bcc4f7c0</uuidx:uuid>
    </extensions>
  </wpt>
</gpx>