<?xml version="1.0" ?>
<gpx xmlns="http://www.topografix.com/GPX/1/1" xmlns:uuidx="http://www.garmin.com/xmlschemas/IdentifierExtension/v1" xmlns:xsi="http://www.w3.org/2001/XMLSchema" creator="Burnt Toast GPX Creator" version="1.1" xsi:schemaLocation="http://www.topografix.com/GPX/1/1 https://www.topografix.com/GPX/1/1/gpx.xsd http://www.garmin.com/xmlschemas/IdentifierExtension/v1 http://www.garmin.com/xmlschemas/IdentifierExtension.xsd">
  <metadata>
    <author>
      <name>Burnt Toast</name>
      <email id="doug" domain="svburnttoast.com"/>
    </author>
    <copyright author="Douglas Carroll">
      <year>2026</year>
    </copyright>
    <link href="https://svburnttoast.com/">
      <text>SV Burnt Toast</text>
    </link>
    <time>2026-03-10T13:22:44.974Z</time>
    <bounds minlat="23.033333" minlon="-74.841667" maxlat="23.033333" maxlon="-74.841667"/>
  </metadata>
  <wpt lat="23.033333" lon="-74.841667">
    <name>Long Island</name>
    <desc/>
    <sym>WayPoint</sym>
    <extensions>
      <uuidx:uuid>7f3c6eb6-362e-46f4-b511-d111826fcf8e</uuidx:uuid>
    </extensions>
  </wpt>
</gpx>