<?xml version="1.0" ?>
<gpx xmlns="http://www.topografix.com/GPX/1/1" xmlns:uuidx="http://www.garmin.com/xmlschemas/IdentifierExtension/v1" xmlns:xsi="http://www.w3.org/2001/XMLSchema" creator="Burnt Toast GPX Creator" version="1.1" xsi:schemaLocation="http://www.topografix.com/GPX/1/1 https://www.topografix.com/GPX/1/1/gpx.xsd http://www.garmin.com/xmlschemas/IdentifierExtension/v1 http://www.garmin.com/xmlschemas/IdentifierExtension.xsd">
  <metadata>
    <author>
      <name>Burnt Toast</name>
      <email id="doug" domain="svburnttoast.com"/>
    </author>
    <copyright author="Douglas Carroll">
      <year>2026</year>
    </copyright>
    <link href="https://svburnttoast.com/">
      <text>SV Burnt Toast</text>
    </link>
    <time>2026-03-10T13:18:04.300Z</time>
    <bounds minlat="23.162500" minlon="-75.362500" maxlat="23.162500" maxlon="-75.362500"/>
  </metadata>
  <wpt lat="23.162500" lon="-75.362500">
    <name>Nuevitas Rocks</name>
    <desc/>
    <sym>WayPoint</sym>
    <extensions>
      <uuidx:uuid>8deef144-f87e-4c3b-970c-2d5c71dc7e5f</uuidx:uuid>
    </extensions>
  </wpt>
</gpx>