<?xml version="1.0" ?>
<gpx xmlns="http://www.topografix.com/GPX/1/1" xmlns:uuidx="http://www.garmin.com/xmlschemas/IdentifierExtension/v1" xmlns:xsi="http://www.w3.org/2001/XMLSchema" creator="Burnt Toast GPX Creator" version="1.1" xsi:schemaLocation="http://www.topografix.com/GPX/1/1 https://www.topografix.com/GPX/1/1/gpx.xsd http://www.garmin.com/xmlschemas/IdentifierExtension/v1 http://www.garmin.com/xmlschemas/IdentifierExtension.xsd">
  <metadata>
    <author>
      <name>Burnt Toast</name>
      <email id="doug" domain="svburnttoast.com"/>
    </author>
    <copyright author="Douglas Carroll">
      <year>2026</year>
    </copyright>
    <link href="https://svburnttoast.com/">
      <text>SV Burnt Toast</text>
    </link>
    <time>2026-03-10T13:12:12.338Z</time>
    <bounds minlat="23.478333" minlon="-75.241667" maxlat="23.478333" maxlon="-75.241667"/>
  </metadata>
  <wpt lat="23.478333" lon="-75.241667">
    <name>Simms</name>
    <desc/>
    <sym>WayPoint</sym>
    <extensions>
      <uuidx:uuid>5ffd814d-715b-4fd4-9497-2264c6a1d428</uuidx:uuid>
    </extensions>
  </wpt>
</gpx>