<?xml version="1.0" ?>
<gpx xmlns="http://www.topografix.com/GPX/1/1" xmlns:uuidx="http://www.garmin.com/xmlschemas/IdentifierExtension/v1" xmlns:xsi="http://www.w3.org/2001/XMLSchema" creator="Burnt Toast GPX Creator" version="1.1" xsi:schemaLocation="http://www.topografix.com/GPX/1/1 https://www.topografix.com/GPX/1/1/gpx.xsd http://www.garmin.com/xmlschemas/IdentifierExtension/v1 http://www.garmin.com/xmlschemas/IdentifierExtension.xsd">
  <metadata>
    <author>
      <name>Burnt Toast</name>
      <email id="doug" domain="svburnttoast.com"/>
    </author>
    <copyright author="Douglas Carroll">
      <year>2026</year>
    </copyright>
    <link href="https://svburnttoast.com/">
      <text>SV Burnt Toast</text>
    </link>
    <time>2026-03-10T13:24:11.519Z</time>
    <bounds minlat="22.841667" minlon="-74.866667" maxlat="22.841667" maxlon="-74.866667"/>
  </metadata>
  <wpt lat="22.841667" lon="-74.866667">
    <name>South Point</name>
    <desc/>
    <sym>WayPoint</sym>
    <extensions>
      <uuidx:uuid>64f3d82d-58f2-4d25-8f5f-c6828133f7eb</uuidx:uuid>
    </extensions>
  </wpt>
</gpx>