<?xml version="1.0" ?>
<gpx xmlns="http://www.topografix.com/GPX/1/1" xmlns:uuidx="http://www.garmin.com/xmlschemas/IdentifierExtension/v1" xmlns:xsi="http://www.w3.org/2001/XMLSchema" creator="Burnt Toast GPX Creator" version="1.1" xsi:schemaLocation="http://www.topografix.com/GPX/1/1 https://www.topografix.com/GPX/1/1/gpx.xsd http://www.garmin.com/xmlschemas/IdentifierExtension/v1 http://www.garmin.com/xmlschemas/IdentifierExtension.xsd">
  <metadata>
    <author>
      <name>Burnt Toast</name>
      <email id="doug" domain="svburnttoast.com"/>
    </author>
    <copyright author="Douglas Carroll">
      <year>2026</year>
    </copyright>
    <link href="https://svburnttoast.com/">
      <text>SV Burnt Toast</text>
    </link>
    <time>2026-03-10T13:11:42.362Z</time>
    <bounds minlat="23.555000" minlon="-75.273333" maxlat="23.555000" maxlon="-75.273333"/>
  </metadata>
  <wpt lat="23.555000" lon="-75.273333">
    <name>Stella Maris</name>
    <desc/>
    <sym>WayPoint</sym>
    <extensions>
      <uuidx:uuid>00991813-32fe-4a73-9a80-c2819b046282</uuidx:uuid>
    </extensions>
  </wpt>
</gpx>