<?xml version="1.0" ?>
<gpx xmlns="http://www.topografix.com/GPX/1/1" xmlns:uuidx="http://www.garmin.com/xmlschemas/IdentifierExtension/v1" xmlns:xsi="http://www.w3.org/2001/XMLSchema" creator="Burnt Toast GPX Creator" version="1.1" xsi:schemaLocation="http://www.topografix.com/GPX/1/1 https://www.topografix.com/GPX/1/1/gpx.xsd http://www.garmin.com/xmlschemas/IdentifierExtension/v1 http://www.garmin.com/xmlschemas/IdentifierExtension.xsd">
  <metadata>
    <author>
      <name>Burnt Toast</name>
      <email id="doug" domain="svburnttoast.com"/>
    </author>
    <copyright author="Douglas Carroll">
      <year>2026</year>
    </copyright>
    <link href="https://svburnttoast.com/">
      <text>SV Burnt Toast</text>
    </link>
    <time>2026-03-10T13:14:32.430Z</time>
    <bounds minlat="23.400000" minlon="-75.216667" maxlat="23.400000" maxlon="-75.216667"/>
  </metadata>
  <wpt lat="23.400000" lon="-75.216667">
    <name>Whale Head</name>
    <desc/>
    <sym>WayPoint</sym>
    <extensions>
      <uuidx:uuid>1967bc76-c6f8-4837-8db5-687b059c408d</uuidx:uuid>
    </extensions>
  </wpt>
</gpx>