<?xml version="1.0" ?>
<gpx xmlns="http://www.topografix.com/GPX/1/1" xmlns:uuidx="http://www.garmin.com/xmlschemas/IdentifierExtension/v1" xmlns:xsi="http://www.w3.org/2001/XMLSchema" creator="Burnt Toast GPX Creator" version="1.1" xsi:schemaLocation="http://www.topografix.com/GPX/1/1 https://www.topografix.com/GPX/1/1/gpx.xsd http://www.garmin.com/xmlschemas/IdentifierExtension/v1 http://www.garmin.com/xmlschemas/IdentifierExtension.xsd">
  <metadata>
    <author>
      <name>Burnt Toast</name>
      <email id="doug" domain="svburnttoast.com"/>
    </author>
    <copyright author="Douglas Carroll">
      <year>2026</year>
    </copyright>
    <link href="https://svburnttoast.com/">
      <text>SV Burnt Toast</text>
    </link>
    <time>2026-03-10T13:13:17.248Z</time>
    <bounds minlat="23.416667" minlon="-75.350000" maxlat="23.416667" maxlon="-75.350000"/>
  </metadata>
  <wpt lat="23.416667" lon="-75.350000">
    <name>White Cay Bank</name>
    <desc/>
    <sym>WayPoint</sym>
    <extensions>
      <uuidx:uuid>3f95ab3e-3d8e-43d1-a5d0-8fc529f43596</uuidx:uuid>
    </extensions>
  </wpt>
</gpx>