<?xml version="1.0" ?>
<gpx xmlns="http://www.topografix.com/GPX/1/1" xmlns:uuidx="http://www.garmin.com/xmlschemas/IdentifierExtension/v1" xmlns:xsi="http://www.w3.org/2001/XMLSchema" creator="Burnt Toast GPX Creator" version="1.1" xsi:schemaLocation="http://www.topografix.com/GPX/1/1 https://www.topografix.com/GPX/1/1/gpx.xsd http://www.garmin.com/xmlschemas/IdentifierExtension/v1 http://www.garmin.com/xmlschemas/IdentifierExtension.xsd">
  <metadata>
    <author>
      <name>Burnt Toast</name>
      <email id="doug" domain="svburnttoast.com"/>
    </author>
    <copyright author="Douglas Carroll">
      <year>2026</year>
    </copyright>
    <link href="https://svburnttoast.com/">
      <text>SV Burnt Toast</text>
    </link>
    <time>2026-01-28T13:14:13.138Z</time>
    <bounds minlat="25.566667" minlon="-79.216667" maxlat="25.566667" maxlon="-79.216667"/>
  </metadata>
  <wpt lat="25.566667" lon="-79.216667">
    <name>Cat Cay</name>
    <desc/>
    <sym>WayPoint</sym>
    <extensions>
      <uuidx:uuid>eeed39d2-977b-4a61-bfc0-e99f6a34cbdb</uuidx:uuid>
    </extensions>
  </wpt>
</gpx>