<?xml version="1.0" ?>
<gpx xmlns="http://www.topografix.com/GPX/1/1" xmlns:uuidx="http://www.garmin.com/xmlschemas/IdentifierExtension/v1" xmlns:xsi="http://www.w3.org/2001/XMLSchema" creator="Burnt Toast GPX Creator" version="1.1" xsi:schemaLocation="http://www.topografix.com/GPX/1/1 https://www.topografix.com/GPX/1/1/gpx.xsd http://www.garmin.com/xmlschemas/IdentifierExtension/v1 http://www.garmin.com/xmlschemas/IdentifierExtension.xsd">
  <metadata>
    <author>
      <name>Burnt Toast</name>
      <email id="doug" domain="svburnttoast.com"/>
    </author>
    <copyright author="Douglas Carroll">
      <year>2026</year>
    </copyright>
    <link href="https://svburnttoast.com/">
      <text>SV Burnt Toast</text>
    </link>
    <time>2026-01-28T13:07:22.423Z</time>
    <bounds minlat="25.683333" minlon="-79.308333" maxlat="25.683333" maxlon="-79.308333"/>
  </metadata>
  <wpt lat="25.683333" lon="-79.308333">
    <name>Nixons Harbor</name>
    <desc/>
    <sym>WayPoint</sym>
    <extensions>
      <uuidx:uuid>990fb23c-e7d0-48b8-82c8-3f37e60f817d</uuidx:uuid>
    </extensions>
  </wpt>
</gpx>