<?xml version="1.0" ?>
<gpx xmlns="http://www.topografix.com/GPX/1/1" xmlns:uuidx="http://www.garmin.com/xmlschemas/IdentifierExtension/v1" xmlns:xsi="http://www.w3.org/2001/XMLSchema" creator="Burnt Toast GPX Creator" version="1.1" xsi:schemaLocation="http://www.topografix.com/GPX/1/1 https://www.topografix.com/GPX/1/1/gpx.xsd http://www.garmin.com/xmlschemas/IdentifierExtension/v1 http://www.garmin.com/xmlschemas/IdentifierExtension.xsd">
  <metadata>
    <author>
      <name>Burnt Toast</name>
      <email id="doug" domain="svburnttoast.com"/>
    </author>
    <copyright author="Douglas Carroll">
      <year>2026</year>
    </copyright>
    <link href="https://svburnttoast.com/">
      <text>SV Burnt Toast</text>
    </link>
    <time>2026-01-28T13:14:13.138Z</time>
    <bounds minlat="25.470000" minlon="-78.160000" maxlat="25.470000" maxlon="-78.160000"/>
  </metadata>
  <wpt lat="25.470000" lon="-78.160000">
    <name>Northwest Channel</name>
    <desc/>
    <sym>WayPoint</sym>
    <extensions>
      <uuidx:uuid>54efc59c-1111-44ec-982f-334b2123493f</uuidx:uuid>
    </extensions>
  </wpt>
</gpx>