<?xml version="1.0" ?>
<gpx xmlns="http://www.topografix.com/GPX/1/1" xmlns:uuidx="http://www.garmin.com/xmlschemas/IdentifierExtension/v1" xmlns:xsi="http://www.w3.org/2001/XMLSchema" creator="Burnt Toast GPX Creator" version="1.1" xsi:schemaLocation="http://www.topografix.com/GPX/1/1 https://www.topografix.com/GPX/1/1/gpx.xsd http://www.garmin.com/xmlschemas/IdentifierExtension/v1 http://www.garmin.com/xmlschemas/IdentifierExtension.xsd">
  <metadata>
    <author>
      <name>Burnt Toast</name>
      <email id="doug" domain="svburnttoast.com"/>
    </author>
    <copyright author="Douglas Carroll">
      <year>2026</year>
    </copyright>
    <link href="https://svburnttoast.com/">
      <text>SV Burnt Toast</text>
    </link>
    <time>2026-01-28T13:14:13.138Z</time>
    <bounds minlat="25.547500" minlon="-78.777500" maxlat="25.547500" maxlon="-78.777500"/>
  </metadata>
  <wpt lat="25.547500" lon="-78.777500">
    <name>South End of Mackie Bank</name>
    <desc/>
    <sym>WayPoint</sym>
    <extensions>
      <uuidx:uuid>4d8a5990-c713-408f-9788-5d31e7c19ac6</uuidx:uuid>
    </extensions>
  </wpt>
</gpx>