<?xml version="1.0" ?>
<gpx xmlns="http://www.topografix.com/GPX/1/1" xmlns:uuidx="http://www.garmin.com/xmlschemas/IdentifierExtension/v1" xmlns:xsi="http://www.w3.org/2001/XMLSchema" creator="Burnt Toast GPX Creator" version="1.1" xsi:schemaLocation="http://www.topografix.com/GPX/1/1 https://www.topografix.com/GPX/1/1/gpx.xsd http://www.garmin.com/xmlschemas/IdentifierExtension/v1 http://www.garmin.com/xmlschemas/IdentifierExtension.xsd">
  <metadata>
    <author>
      <name>Burnt Toast</name>
      <email id="doug" domain="svburnttoast.com"/>
    </author>
    <copyright author="Douglas Carroll">
      <year>2026</year>
    </copyright>
    <link href="https://svburnttoast.com/">
      <text>SV Burnt Toast</text>
    </link>
    <time>2026-01-28T13:07:22.423Z</time>
    <bounds minlat="25.666667" minlon="-79.287500" maxlat="25.666667" maxlon="-79.287500"/>
  </metadata>
  <wpt lat="25.666667" lon="-79.287500">
    <name>Turtle Rocks</name>
    <desc/>
    <sym>WayPoint</sym>
    <extensions>
      <uuidx:uuid>6b7df970-7ac6-42a4-b29b-5e3004cbd907</uuidx:uuid>
    </extensions>
  </wpt>
</gpx>