<?xml version="1.0" ?>
<gpx xmlns="http://www.topografix.com/GPX/1/1" xmlns:uuidx="http://www.garmin.com/xmlschemas/IdentifierExtension/v1" xmlns:xsi="http://www.w3.org/2001/XMLSchema" creator="Burnt Toast GPX Creator" version="1.1" xsi:schemaLocation="http://www.topografix.com/GPX/1/1 https://www.topografix.com/GPX/1/1/gpx.xsd http://www.garmin.com/xmlschemas/IdentifierExtension/v1 http://www.garmin.com/xmlschemas/IdentifierExtension.xsd">
  <metadata>
    <author>
      <name>Burnt Toast</name>
      <email id="doug" domain="svburnttoast.com"/>
    </author>
    <copyright author="Douglas Carroll">
      <year>2026</year>
    </copyright>
    <link href="https://svburnttoast.com/">
      <text>SV Burnt Toast</text>
    </link>
    <time>2026-01-28T13:14:13.138Z</time>
    <bounds minlat="25.405217" minlon="-77.876350" maxlat="25.405217" maxlon="-77.876350"/>
  </metadata>
  <wpt lat="25.405217" lon="-77.876350">
    <name>Diamond Cay Anchorage</name>
    <desc/>
    <sym>WayPoint</sym>
    <extensions>
      <uuidx:uuid>48ca0d60-e0b3-4e42-8520-cf2d7de3f3fa</uuidx:uuid>
    </extensions>
  </wpt>
</gpx>