<?xml version="1.0" ?>
<gpx xmlns="http://www.topografix.com/GPX/1/1" xmlns:uuidx="http://www.garmin.com/xmlschemas/IdentifierExtension/v1" xmlns:xsi="http://www.w3.org/2001/XMLSchema" creator="Burnt Toast GPX Creator" version="1.1" xsi:schemaLocation="http://www.topografix.com/GPX/1/1 https://www.topografix.com/GPX/1/1/gpx.xsd http://www.garmin.com/xmlschemas/IdentifierExtension/v1 http://www.garmin.com/xmlschemas/IdentifierExtension.xsd">
  <metadata>
    <author>
      <name>Burnt Toast</name>
      <email id="doug" domain="svburnttoast.com"/>
    </author>
    <copyright author="Douglas Carroll">
      <year>2026</year>
    </copyright>
    <link href="https://svburnttoast.com/">
      <text>SV Burnt Toast</text>
    </link>
    <time>2026-02-27T15:17:33.002Z</time>
    <bounds minlat="22.234833" minlon="-75.759833" maxlat="22.234833" maxlon="-75.759833"/>
  </metadata>
  <wpt lat="22.234833" lon="-75.759833">
    <name>Hog Point</name>
    <desc/>
    <sym>WayPoint</sym>
    <extensions>
      <uuidx:uuid>338f267a-5159-42d8-af5e-5e0f77014de5</uuidx:uuid>
    </extensions>
  </wpt>
</gpx>