<?xml version="1.0" ?>
<gpx xmlns="http://www.topografix.com/GPX/1/1" xmlns:uuidx="http://www.garmin.com/xmlschemas/IdentifierExtension/v1" xmlns:xsi="http://www.w3.org/2001/XMLSchema" creator="Burnt Toast GPX Creator" version="1.1" xsi:schemaLocation="http://www.topografix.com/GPX/1/1 https://www.topografix.com/GPX/1/1/gpx.xsd http://www.garmin.com/xmlschemas/IdentifierExtension/v1 http://www.garmin.com/xmlschemas/IdentifierExtension.xsd">
  <metadata>
    <author>
      <name>Burnt Toast</name>
      <email id="doug" domain="svburnttoast.com"/>
    </author>
    <copyright author="Douglas Carroll">
      <year>2026</year>
    </copyright>
    <link href="https://svburnttoast.com/">
      <text>SV Burnt Toast</text>
    </link>
    <time>2026-02-27T15:09:42.384Z</time>
    <bounds minlat="22.748333" minlon="-75.916667" maxlat="22.748333" maxlon="-75.916667"/>
  </metadata>
  <wpt lat="22.748333" lon="-75.916667">
    <name>Jamaica Spit</name>
    <desc/>
    <sym>WayPoint</sym>
    <extensions>
      <uuidx:uuid>25495694-bba0-40b4-89eb-b2f03d5edaba</uuidx:uuid>
    </extensions>
  </wpt>
</gpx>