<?xml version="1.0" ?>
<gpx xmlns="http://www.topografix.com/GPX/1/1" xmlns:uuidx="http://www.garmin.com/xmlschemas/IdentifierExtension/v1" xmlns:xsi="http://www.w3.org/2001/XMLSchema" creator="Burnt Toast GPX Creator" version="1.1" xsi:schemaLocation="http://www.topografix.com/GPX/1/1 https://www.topografix.com/GPX/1/1/gpx.xsd http://www.garmin.com/xmlschemas/IdentifierExtension/v1 http://www.garmin.com/xmlschemas/IdentifierExtension.xsd">
  <metadata>
    <author>
      <name>Burnt Toast</name>
      <email id="doug" domain="svburnttoast.com"/>
    </author>
    <copyright author="Douglas Carroll">
      <year>2026</year>
    </copyright>
    <link href="https://svburnttoast.com/">
      <text>SV Burnt Toast</text>
    </link>
    <time>2026-02-27T15:15:41.583Z</time>
    <bounds minlat="22.358333" minlon="-75.776667" maxlat="22.358333" maxlon="-75.776667"/>
  </metadata>
  <wpt lat="22.358333" lon="-75.776667">
    <name>Johnson Cut</name>
    <desc/>
    <sym>WayPoint</sym>
    <extensions>
      <uuidx:uuid>88677f60-136d-4f73-a32e-332186c6a732</uuidx:uuid>
    </extensions>
  </wpt>
</gpx>