<?xml version="1.0" ?>
<gpx xmlns="http://www.topografix.com/GPX/1/1" xmlns:uuidx="http://www.garmin.com/xmlschemas/IdentifierExtension/v1" xmlns:xsi="http://www.w3.org/2001/XMLSchema" creator="Burnt Toast GPX Creator" version="1.1" xsi:schemaLocation="http://www.topografix.com/GPX/1/1 https://www.topografix.com/GPX/1/1/gpx.xsd http://www.garmin.com/xmlschemas/IdentifierExtension/v1 http://www.garmin.com/xmlschemas/IdentifierExtension.xsd">
  <metadata>
    <author>
      <name>Burnt Toast</name>
      <email id="doug" domain="svburnttoast.com"/>
    </author>
    <copyright author="Douglas Carroll">
      <year>2026</year>
    </copyright>
    <link href="https://svburnttoast.com/">
      <text>SV Burnt Toast</text>
    </link>
    <time>2026-02-15T12:28:45.849Z</time>
    <bounds minlat="22.970000" minlon="-75.818333" maxlat="22.970000" maxlon="-75.818333"/>
  </metadata>
  <wpt lat="22.970000" lon="-75.818333">
    <name>Lanzadera Cay</name>
    <desc/>
    <sym>WayPoint</sym>
    <extensions>
      <uuidx:uuid>7c261aef-0584-46fa-82ff-d1f6334a80c8</uuidx:uuid>
    </extensions>
  </wpt>
</gpx>