<?xml version="1.0" ?>
<gpx xmlns="http://www.topografix.com/GPX/1/1" xmlns:uuidx="http://www.garmin.com/xmlschemas/IdentifierExtension/v1" xmlns:xsi="http://www.w3.org/2001/XMLSchema" creator="Burnt Toast GPX Creator" version="1.1" xsi:schemaLocation="http://www.topografix.com/GPX/1/1 https://www.topografix.com/GPX/1/1/gpx.xsd http://www.garmin.com/xmlschemas/IdentifierExtension/v1 http://www.garmin.com/xmlschemas/IdentifierExtension.xsd">
  <metadata>
    <author>
      <name>Burnt Toast</name>
      <email id="doug" domain="svburnttoast.com"/>
    </author>
    <copyright author="Douglas Carroll">
      <year>2026</year>
    </copyright>
    <link href="https://svburnttoast.com/">
      <text>SV Burnt Toast</text>
    </link>
    <time>2026-02-27T15:08:56.044Z</time>
    <bounds minlat="22.791667" minlon="-75.928333" maxlat="22.791667" maxlon="-75.928333"/>
  </metadata>
  <wpt lat="22.791667" lon="-75.928333">
    <name>Man of War (SW)</name>
    <desc/>
    <sym>WayPoint</sym>
    <extensions>
      <uuidx:uuid>b0459431-34f4-4ec1-85b7-9c3f52c1c5c6</uuidx:uuid>
    </extensions>
  </wpt>
</gpx>