<?xml version="1.0" ?>
<gpx xmlns="http://www.topografix.com/GPX/1/1" xmlns:uuidx="http://www.garmin.com/xmlschemas/IdentifierExtension/v1" xmlns:xsi="http://www.w3.org/2001/XMLSchema" creator="Burnt Toast GPX Creator" version="1.1" xsi:schemaLocation="http://www.topografix.com/GPX/1/1 https://www.topografix.com/GPX/1/1/gpx.xsd http://www.garmin.com/xmlschemas/IdentifierExtension/v1 http://www.garmin.com/xmlschemas/IdentifierExtension.xsd">
  <metadata>
    <author>
      <name>Burnt Toast</name>
      <email id="doug" domain="svburnttoast.com"/>
    </author>
    <copyright author="Douglas Carroll">
      <year>2026</year>
    </copyright>
    <link href="https://svburnttoast.com/">
      <text>SV Burnt Toast</text>
    </link>
    <time>2026-02-27T15:18:22.336Z</time>
    <bounds minlat="22.241667" minlon="-75.733333" maxlat="22.241667" maxlon="-75.733333"/>
  </metadata>
  <wpt lat="22.241667" lon="-75.733333">
    <name>Ragged HBR</name>
    <desc/>
    <sym>WayPoint</sym>
    <extensions>
      <uuidx:uuid>e05ed3d0-ad65-4cd0-be22-ceb94325d453</uuidx:uuid>
    </extensions>
  </wpt>
</gpx>