<?xml version="1.0" ?>
<gpx xmlns="http://www.topografix.com/GPX/1/1" xmlns:uuidx="http://www.garmin.com/xmlschemas/IdentifierExtension/v1" xmlns:xsi="http://www.w3.org/2001/XMLSchema" creator="Burnt Toast GPX Creator" version="1.1" xsi:schemaLocation="http://www.topografix.com/GPX/1/1 https://www.topografix.com/GPX/1/1/gpx.xsd http://www.garmin.com/xmlschemas/IdentifierExtension/v1 http://www.garmin.com/xmlschemas/IdentifierExtension.xsd">
  <metadata>
    <author>
      <name>Burnt Toast</name>
      <email id="doug" domain="svburnttoast.com"/>
    </author>
    <copyright author="Douglas Carroll">
      <year>2026</year>
    </copyright>
    <link href="https://svburnttoast.com/">
      <text>SV Burnt Toast</text>
    </link>
    <time>2026-02-15T12:28:11.330Z</time>
    <bounds minlat="23.019167" minlon="-75.752500" maxlat="23.019167" maxlon="-75.752500"/>
  </metadata>
  <wpt lat="23.019167" lon="-75.752500">
    <name>Water Cay West</name>
    <desc/>
    <sym>WayPoint</sym>
    <extensions>
      <uuidx:uuid>b1c1c30a-58be-47bc-b89f-1d830f77898c</uuidx:uuid>
    </extensions>
  </wpt>
</gpx>