<?xml version="1.0" encoding="UTF-8"?>
<gpx creator="Orca App" version="1.1" xmlns="http://www.topografix.com/GPX/1/1" xmlns:uuidx="http://www.garmin.com/xmlschemas/IdentifierExtension/v1" xmlns:xsi="http://www.w3.org/2001/XMLSchema" xsi:schemaLocation="http://www.topografix.com/GPX/1/1 https://www.topografix.com/GPX/1/1/gpx.xsd http://www.garmin.com/xmlschemas/IdentifierExtension/v1 http://www.garmin.com/xmlschemas/IdentifierExtension.xsd"><metadata><author><name>Douglas Carroll</name><email id="doug.wm7i" domain="gmail.com"/></author><copyright author="Douglas Carroll"><year>2026</year></copyright><link href="https://getorca.com/"><text>Orca - The Marine CoPilot - Your next chartplotter</text></link><time>2026-02-26T15:58:46.818Z</time><bounds minlat="22.881925079785887" minlon="-75.87745511948295" maxlat="23.029681" maxlon="-75.715246"/></metadata><rte><name>Water to Flamingo</name><extensions><uuidx:uuid>88792ab4-48e2-40b5-9a89-724c8a7f82bb</uuidx:uuid></extensions><rtept lat="23.029681" lon="-75.71524599999998"><sym>WayPoint</sym></rtept><rtept lat="23.0294345121983" lon="-75.7215418227857"><sym>WayPoint</sym></rtept><rtept lat="23.02931240795851" lon="-75.72273261015773"><sym>WayPoint</sym></rtept><rtept lat="23.01920346095485" lon="-75.75250942714982"><sym>WayPoint</sym></rtept><rtept lat="23.01920346095485" lon="-75.75250942714982"><sym>WayPoint</sym></rtept><rtept lat="22.97002716079884" lon="-75.81832058955632"><sym>WayPoint</sym></rtept><rtept lat="22.97002716079884" lon="-75.81832058955632"><sym>WayPoint</sym></rtept><rtept lat="22.90831835849099" lon="-75.87745511948295"><sym>WayPoint</sym></rtept><rtept lat="22.90831835849099" lon="-75.87745511948295"><sym>WayPoint</sym></rtept><rtept lat="22.88768831338484" lon="-75.885275174177"><sym>WayPoint</sym></rtept><rtept lat="22.8806579" lon="-75.8866587"><sym>WayPoint</sym></rtept><rtept lat="22.88102763459813" lon="-75.8802825744826"><sym>WayPoint</sym></rtept><rtept lat="22.88033519999999" lon="-75.87964564994029"><sym>WayPoint</sym></rtept></rte></gpx>