<?xml version="1.0" ?>
<gpx xmlns="http://www.topografix.com/GPX/1/1" xmlns:uuidx="http://www.garmin.com/xmlschemas/IdentifierExtension/v1" xmlns:xsi="http://www.w3.org/2001/XMLSchema" creator="Burnt Toast GPX Creator" version="1.1" xsi:schemaLocation="http://www.topografix.com/GPX/1/1 https://www.topografix.com/GPX/1/1/gpx.xsd http://www.garmin.com/xmlschemas/IdentifierExtension/v1 http://www.garmin.com/xmlschemas/IdentifierExtension.xsd">
  <metadata>
    <author>
      <name>Burnt Toast</name>
      <email id="doug" domain="svburnttoast.com"/>
    </author>
    <copyright author="Douglas Carroll">
      <year>2026</year>
    </copyright>
    <link href="https://svburnttoast.com/">
      <text>SV Burnt Toast</text>
    </link>
    <time>2026-03-15T15:34:19.873Z</time>
    <bounds minlat="22.633333" minlon="-73.450000" maxlat="22.633333" maxlon="-73.450000"/>
  </metadata>
  <wpt lat="22.633333" lon="-73.450000">
    <name>Plana Cays East</name>
    <desc/>
    <sym>WayPoint</sym>
    <extensions>
      <uuidx:uuid>f68af61d-edf2-420e-bffc-882a18744dfe</uuidx:uuid>
    </extensions>
  </wpt>
</gpx>