<?xml version="1.0" ?>
<gpx xmlns="http://www.topografix.com/GPX/1/1" xmlns:uuidx="http://www.garmin.com/xmlschemas/IdentifierExtension/v1" xmlns:xsi="http://www.w3.org/2001/XMLSchema" creator="Burnt Toast GPX Creator" version="1.1" xsi:schemaLocation="http://www.topografix.com/GPX/1/1 https://www.topografix.com/GPX/1/1/gpx.xsd http://www.garmin.com/xmlschemas/IdentifierExtension/v1 http://www.garmin.com/xmlschemas/IdentifierExtension.xsd">
  <metadata>
    <author>
      <name>Burnt Toast</name>
      <email id="doug" domain="svburnttoast.com"/>
    </author>
    <copyright author="Douglas Carroll">
      <year>2026</year>
    </copyright>
    <link href="https://svburnttoast.com/">
      <text>SV Burnt Toast</text>
    </link>
    <time>2026-03-15T15:33:05.675Z</time>
    <bounds minlat="22.600000" minlon="-73.633333" maxlat="22.600000" maxlon="-73.633333"/>
  </metadata>
  <wpt lat="22.600000" lon="-73.633333">
    <name>Plana Cays</name>
    <desc/>
    <sym>WayPoint</sym>
    <extensions>
      <uuidx:uuid>e480c95d-3db5-45b5-87f4-34d57fa5b254</uuidx:uuid>
    </extensions>
  </wpt>
</gpx>