<?xml version="1.0" ?>
<gpx xmlns="http://www.topografix.com/GPX/1/1" xmlns:uuidx="http://www.garmin.com/xmlschemas/IdentifierExtension/v1" xmlns:xsi="http://www.w3.org/2001/XMLSchema" creator="Burnt Toast GPX Creator" version="1.1" xsi:schemaLocation="http://www.topografix.com/GPX/1/1 https://www.topografix.com/GPX/1/1/gpx.xsd http://www.garmin.com/xmlschemas/IdentifierExtension/v1 http://www.garmin.com/xmlschemas/IdentifierExtension.xsd">
  <metadata>
    <author>
      <name>Burnt Toast</name>
      <email id="doug" domain="svburnttoast.com"/>
    </author>
    <copyright author="Douglas Carroll">
      <year>2026</year>
    </copyright>
    <link href="https://svburnttoast.com/">
      <text>SV Burnt Toast</text>
    </link>
    <time>2026-03-15T15:26:02.454Z</time>
    <bounds minlat="23.630000" minlon="-74.864667" maxlat="23.630000" maxlon="-74.864667"/>
  </metadata>
  <wpt lat="23.630000" lon="-74.864667">
    <name>Rum Cay</name>
    <desc/>
    <sym>WayPoint</sym>
    <extensions>
      <uuidx:uuid>eb4f0e5a-e3b5-4b25-b834-10a3b1d5650a</uuidx:uuid>
    </extensions>
  </wpt>
</gpx>