<?xml version="1.0" ?>
<gpx xmlns="http://www.topografix.com/GPX/1/1" xmlns:uuidx="http://www.garmin.com/xmlschemas/IdentifierExtension/v1" xmlns:xsi="http://www.w3.org/2001/XMLSchema" creator="Burnt Toast GPX Creator" version="1.1" xsi:schemaLocation="http://www.topografix.com/GPX/1/1 https://www.topografix.com/GPX/1/1/gpx.xsd http://www.garmin.com/xmlschemas/IdentifierExtension/v1 http://www.garmin.com/xmlschemas/IdentifierExtension.xsd">
  <metadata>
    <author>
      <name>Burnt Toast</name>
      <email id="doug" domain="svburnttoast.com"/>
    </author>
    <copyright author="Douglas Carroll">
      <year>2026</year>
    </copyright>
    <link href="https://svburnttoast.com/">
      <text>SV Burnt Toast</text>
    </link>
    <time>2026-03-15T15:26:50.490Z</time>
    <bounds minlat="23.625000" minlon="-74.791667" maxlat="23.625000" maxlon="-74.791667"/>
  </metadata>
  <wpt lat="23.625000" lon="-74.791667">
    <name>Signal Hill</name>
    <desc/>
    <sym>WayPoint</sym>
    <extensions>
      <uuidx:uuid>066677b0-fe77-4934-9165-851955bd9e58</uuidx:uuid>
    </extensions>
  </wpt>
</gpx>